{"type":"FeatureCollection", "features": [
{"type":"Feature","geometry":{"type":"Polygon","coordinates":[[[-64.5174759,60.3043982],[-64.6270717,60.3464833],[-64.8629416,60.3614625],[-64.8631521,60.3012283],[-65.2316338,59.9313244],[-65.4534678,59.8238236],[-65.5592203,59.7359253],[-65.4380594,59.5711158],[-65.5274173,59.4694265],[-65.8363457,59.2904708],[-65.7988351,59.2069597],[-65.9255938,59.0585212],[-65.9345328,58.9777589],[-66.0958658,58.8615097],[-66.4452377,58.8481497],[-66.6758379,58.5347538],[-66.9569782,58.5099319],[-67.0134019,58.4434419],[-67.1848144,58.416886],[-67.3819741,58.3176006],[-67.591085,58.2602552],[-67.7029365,58.3417502],[-67.7177087,58.4696731],[-67.8992035,58.4942283],[-68,58.587462],[-68.1241847,58.5624876],[-68.2761485,58.6034841],[-68.348308,58.6935097],[-68.3389055,58.8161173],[-68.5241739,58.8930666],[-68.8192609,58.9276421],[-68.9127262,58.8973393],[-69.1698604,58.9269495],[-69.1020732,59.0270246],[-69.1549802,59.1476244],[-69.2737288,59.1962708],[-69.2059646,59.2542191],[-69.2689647,59.342679],[-69.6064062,59.3620241],[-69.6769027,59.5152976],[-69.4829403,59.663148],[-69.6132993,59.7041029],[-69.4899778,59.8691976],[-69.618854,59.907406],[-69.5404519,60.0929625],[-69.5468963,60.1982689],[-69.7500007,60.303639],[-69.6680992,60.3579892],[-69.8038577,60.5249211],[-69.6648482,60.6049537],[-69.6962296,60.6905781],[-69.3634109,60.8075943],[-69.3728459,60.920524],[-69.4947199,61.0646282],[-69.6115261,61.0793134],[-69.6844769,60.9555534],[-69.6317768,60.894626],[-69.872886,60.8527708],[-70.0740731,60.8536382],[-70.1049614,61.0668612],[-70.29746,61.1004001],[-70.459,61.042],[-70.85275,61.07],[-70.983,61.12675],[-71.2155,61.16225],[-71.3770795,61.1459018],[-71.4361417,61.2205872],[-71.72719,61.28302],[-71.64568,61.4080301],[-71.7693599,61.4656101],[-71.73138,61.5512401],[-71.5546701,61.6208399],[-71.8099201,61.6957],[-71.9100648,61.6575179],[-72.1449872,61.7992142],[-72.2133886,61.8758941],[-72.3933598,61.8977057],[-72.5899482,61.9675584],[-72.6135179,62.1119672],[-73.0576819,62.18297],[-73.1915188,62.3142775],[-73.547577,62.387473],[-73.7098342,62.4833794],[-73.8491267,62.4634911],[-74.0048289,62.3658414],[-74.4034593,62.2455852],[-74.7115803,62.2507834],[-74.73904,62.15612],[-74.9672599,62.26547],[-75.3461266,62.3172882],[-75.5244799,62.25335],[-76.8131559,62.5236071],[-77.0610237,62.529724],[-77.4225398,62.5802541],[-77.6946259,62.4988802],[-78.0356526,62.3545829],[-78.1699669,62.273384],[-78.146267,61.9982754],[-78.0820763,61.8492959],[-77.9398075,61.6792724],[-77.7892055,61.68467],[-77.6447957,61.5719324],[-77.6256429,61.458932],[-77.7641563,61.3790332],[-77.7568191,61.1922943],[-77.8291559,61.0504187],[-77.912696,61.0333617],[-78.19231,60.8598301],[-78.1793399,60.7929742],[-77.8657128,60.7631202],[-77.6339284,60.7646636],[-77.8049041,60.6048123],[-77.5846374,60.5018262],[-77.7745144,60.394638],[-77.6526893,60.3654608],[-77.4982472,60.1970367],[-77.6097504,60.0927255],[-77.5716282,60.0419395],[-77.3897899,60.040262],[-77.3039404,59.9861445],[-77.402434,59.9001106],[-77.3235726,59.8043254],[-77.5745616,59.7479642],[-77.7539083,59.6158743],[-77.7526967,59.5279724],[-77.8939432,59.502556],[-77.7672182,59.41545],[-77.8576987,59.2842361],[-78.1245399,59.20461],[-78.11892,59.149],[-78.2885152,59.0050724],[-78.3324301,58.92898],[-78.5788001,58.8974699],[-78.4867699,58.6176201],[-78.4251601,58.54098],[-78.0573034,58.4271397],[-78.026619,58.3641514],[-77.6496098,58.2630426],[-77.2528138,58.0495353],[-76.8527453,57.6735869],[-76.866934,57.6275212],[-76.6607775,57.3695932],[-76.5500837,57.0960628],[-76.5689401,56.9407],[-76.5330699,56.8256601],[-76.5481109,56.3010205],[-76.6518953,56.1943815],[-76.72211,56.02058],[-77.0946801,55.7435946],[-77.1534101,55.6593],[-77.5826919,55.3825512],[-77.8436768,55.2585488],[-78.1903625,55.1165693],[-78.3162707,55.0428212],[-78.5455781,54.9883258],[-78.9932442,54.83157],[-79.2277229,54.7980997],[-79.5742551,54.7191112],[-79.7188032,54.6485305],[-79.5671601,54.6148],[-79.4965,54.49625],[-79.49395,54.3739001],[-79.1331101,54.08679],[-79.0075199,53.91581],[-79.0627036,53.8428279],[-78.94564,53.53992],[-79.1036799,53.5165299],[-78.9945099,53.4432599],[-78.9750485,53.3268878],[-78.9109889,53.2589924],[-78.9634302,53.1824078],[-78.8803464,52.8768643],[-78.75138,52.83572],[-78.86126,52.7480601],[-78.7482399,52.6878001],[-78.7666619,52.5567466],[-78.5684896,52.5136354],[-78.5122061,52.4526096],[-78.5125129,52.3156746],[-78.5642196,52.2891568],[-78.5497999,52.1587696],[-78.7026215,52.0423555],[-78.7110329,51.9842723],[-78.8578599,51.9394601],[-78.8366445,51.8442627],[-79.0249023,51.7725463],[-78.9446299,51.6602393],[-78.8563072,51.6198041],[-78.7643981,51.4823985],[-78.8987501,51.3817299],[-79.0952101,51.53297],[-79.24235,51.54296],[-79.2229057,51.6255302],[-79.3113113,51.6648896],[-79.5408805,51.5517232],[-79.5164173,51.488565],[-79.51664,50.7834243],[-79.5168913,49.9834137],[-79.5173491,48.8834266],[-79.5175696,48.187132],[-79.5169761,47.5332147],[-79.5864871,47.4448395],[-79.4268878,47.2516747],[-79.4453559,47.1088995],[-79.3177562,46.9357604],[-79.1647874,46.8191796],[-78.9876104,46.5458604],[-78.8542328,46.4411469],[-78.7282178,46.3826407],[-78.6797099,46.3178557],[-78.3788602,46.288105],[-78.3136599,46.2526666],[-78.1440207,46.2761307],[-77.795181,46.1973456],[-77.5725024,46.162243],[-77.276878,46.0119437],[-77.2722175,45.9429818],[-77.193413,45.8659973],[-76.9820409,45.7863885],[-76.929131,45.8922348],[-76.7646782,45.8514441],[-76.7686765,45.7340659],[-76.659439,45.5598259],[-76.3517686,45.4569206],[-76.2045894,45.5176353],[-75.9736631,45.476181],[-75.8117218,45.3730469],[-75.6816024,45.459465],[-75.1299805,45.5773348],[-74.9513014,45.6402244],[-74.6324449,45.6370947],[-74.3810283,45.5655785],[-74.4720083,45.3027727],[-74.3201062,45.1881599],[-74.4933934,45.0665667],[-74.6684979,45.0042784],[-74.1501533,44.9913689],[-73.0653617,45.0159617],[-72.3119542,45.0037886],[-71.5010194,45.0134458],[-71.3976597,45.2053269],[-71.2879208,45.3009089],[-71.1329108,45.2445131],[-70.9891247,45.3341381],[-70.8061006,45.3215731],[-70.8257442,45.4002592],[-70.6244528,45.4061483],[-70.7225622,45.513675],[-70.5528731,45.6679061],[-70.4003497,45.7197272],[-70.4168725,45.7955344],[-70.253855,45.9024803],[-70.3125542,45.9621369],[-70.2926928,46.1914742],[-70.20894,46.3295028],[-70.0565589,46.4165506],[-69.9971231,46.6955228],[-69.22447,47.4598397],[-69.0354798,47.4149845],[-69.0509608,47.3000884],[-68.7996281,47.348942],[-68.5692747,47.4271241],[-68.3834933,47.5531985],[-68.3823342,47.9161169],[-68.1227929,47.9163191],[-68.1225915,47.9996963],[-67.5977438,47.9999447],[-67.6079053,47.936763],[-67.3642304,47.8562987],[-67.2116087,47.875524],[-66.9214104,47.9843466],[-66.7004491,48.0053563],[-66.4799075,48.0835891],[-66.3537576,48.0812634],[-66.301538,48.0327075],[-66.1608784,48.0489975],[-65.8581465,48.0222337],[-65.6064082,47.9336109],[-65.5361394,47.8286068],[-65.1116784,47.9211034],[-64.4468737,48.2100036],[-64.2737962,48.2206848],[-63.625121,48.0000632],[-63.328871,47.6024791],[-62.98636,47.1397285],[-62.2999563,46.839999],[-61.3993669,46.8399985],[-61.3504814,47.0097234],[-60.9918489,47.3294321],[-60.7626788,47.4233275],[-60.4037537,47.7610742],[-60.4768198,48.7813802],[-58.5015291,50.2709191],[-57.7361373,50.9986069],[-57.3040495,51.138839],[-57.1074889,51.3771358],[-57.1074889,52.0000758],[-57.9990846,52.0000672],[-58.8991462,52.0000521],[-59.6991443,52.000074],[-60.8991758,52.0000827],[-61.9992271,52.0000778],[-62.5992346,52.0000751],[-63.8056199,52.0000707],[-63.8357358,52.0815538],[-63.6901886,52.1290272],[-63.7477964,52.2555036],[-64.014383,52.3637238],[-64.0896642,52.446723],[-64.031956,52.5706518],[-63.8761246,52.6201365],[-63.3925454,52.6793529],[-63.6054456,52.7681628],[-63.7222573,52.773999],[-64.1284225,52.6847634],[-64.2102372,52.5648607],[-64.1373685,52.4307162],[-64.1709078,52.3068857],[-64.2503563,52.2815681],[-64.1814552,52.1231434],[-64.348956,51.9904418],[-64.3593839,51.8476621],[-64.2850052,51.7282473],[-64.4584791,51.6240332],[-64.5603419,51.5945885],[-64.6430397,51.7053851],[-64.8133554,51.7811812],[-64.9678445,51.7201163],[-65.1657794,51.8081429],[-65.3488582,51.8478118],[-65.3491321,51.9364851],[-65.5270529,52.081695],[-65.7648443,52.1161455],[-66.0228449,52.0837971],[-66.1052302,52.2046007],[-66.2492511,52.2847172],[-66.2701286,52.1481627],[-66.453193,52.2454933],[-66.4801118,52.3553228],[-66.3920978,52.3796825],[-66.3538233,52.4701328],[-66.4404108,52.6349956],[-66.3078218,52.7294811],[-66.4122516,52.869549],[-66.2811199,52.8671672],[-66.35148,53.0096671],[-66.6312949,52.8989619],[-66.6650322,52.8089925],[-66.802279,52.7160048],[-67.0670067,52.7751162],[-67.0742522,52.8754518],[-67.2274723,52.8417708],[-67.3168245,52.8754477],[-67.3923368,53.120855],[-67.154228,53.1472255],[-67.0416076,53.0760721],[-66.9244479,53.4186609],[-67.0303082,53.5267371],[-67.2187691,53.5303403],[-67.3947309,53.6146543],[-67.3968497,53.6828793],[-67.592219,53.7574978],[-67.5714897,53.8455668],[-67.6998393,53.9766045],[-67.8216853,54.0257023],[-67.675322,54.1587612],[-67.6799563,54.3119235],[-67.7480367,54.3502609],[-67.7274967,54.4573993],[-67.3492353,54.516992],[-67.138551,54.6245387],[-67.0629008,54.6929331],[-67.2134185,54.7927488],[-67.3997557,54.957859],[-67.4637039,55.0628569],[-67.3228379,55.0890653],[-67.2574846,55.0212742],[-66.9478467,54.8223105],[-66.6963122,54.7259542],[-66.6026511,54.8135063],[-66.6814082,54.9236678],[-66.7668162,55.147979],[-66.6697735,55.2694447],[-66.6027926,55.2689814],[-66.2602838,55.0001826],[-66.0233959,54.9419533],[-65.8498454,54.9272109],[-65.8383149,54.8365275],[-65.6901153,54.711527],[-65.4555303,54.7285832],[-65.3256953,54.848678],[-65.2096231,54.8479578],[-65.1264493,54.961478],[-64.9719006,54.9373956],[-64.7478748,54.8139943],[-64.7780869,54.7334688],[-64.5568825,54.7136623],[-64.4852881,54.7937197],[-64.2945278,54.7532738],[-64.0542772,54.6009083],[-63.9114392,54.6042487],[-63.8133772,54.6507858],[-63.8205183,54.9479581],[-63.6612828,54.8999525],[-63.556392,55.0344439],[-63.6113669,55.0908038],[-63.5474105,55.225469],[-63.6794751,55.2668869],[-63.4422496,55.3440597],[-63.4785667,55.4292056],[-63.6653971,55.4230506],[-63.7754714,55.481709],[-63.6654728,55.5459876],[-63.7736126,55.856054],[-63.8450987,55.8790734],[-63.6367213,56.0235227],[-63.9332488,56.0971519],[-64.0359633,56.154881],[-63.8629333,56.2125891],[-64.0904958,56.2798978],[-64.1527402,56.4411121],[-63.993016,56.4082113],[-63.931063,56.5337576],[-64.1453144,56.6997548],[-64.0127595,56.7786769],[-64.012978,56.8498464],[-63.9080998,56.9275211],[-63.8900834,57.0860831],[-63.7648855,57.1399256],[-63.7414669,57.2407656],[-63.8558208,57.3343012],[-63.7013012,57.3683336],[-63.7612609,57.4393317],[-63.7719159,57.5924498],[-63.6499515,57.6200639],[-63.9972489,57.8120787],[-64.1166754,57.8111394],[-64.2509603,58.0387185],[-64.4330914,58.0699081],[-64.4217325,58.1866737],[-64.217777,58.2477322],[-64.1722227,58.3618733],[-64.0225389,58.3710192],[-63.8811133,58.4294397],[-63.973579,58.5296361],[-64.1049435,58.56323],[-64.0472222,58.7026285],[-63.9502538,58.6852473],[-63.5067939,58.7425746],[-63.5953411,58.8571758],[-63.812138,58.8470628],[-64.2297046,58.7836485],[-64.2336567,58.8641133],[-64.3325402,58.9045628],[-64.5501825,58.8874554],[-64.6516502,58.943752],[-64.8207135,58.9168927],[-64.8650159,59.015405],[-64.7792388,59.0749574],[-64.4603011,58.9815143],[-64.315176,59.0656298],[-64.4903091,59.0990751],[-64.4886035,59.2571101],[-64.5435363,59.3104351],[-64.5115984,59.4229799],[-64.3240693,59.5127741],[-64.4337662,59.5419736],[-64.6798349,59.4469051],[-64.8396296,59.553342],[-64.8982595,59.6417833],[-64.7604854,59.7065582],[-64.8252245,59.825608],[-64.6622305,59.952554],[-64.8402284,59.9703191],[-64.742714,60.0561311],[-64.5937159,60.1170313],[-64.7455625,60.168628],[-64.8537778,60.2694115],[-64.5174759,60.3043982]]]},"properties":{"@id":"relation/61549","ISO3166-2":"CA-QC","admin_level":"4","alt_name":"Qc","alt_name:moe":"Kupek","border_type":"province","boundary":"administrative","default_language":"fr","name":"Québec","name:af":"Quebec","name:am":"ኬበክ","name:ar":"كيبك","name:arc":"ܩܝܒܩ","name:azb":"کبک","name:be":"Квебек","name:be-tarask":"Квэбэк","name:bg":"Квебек","name:bn":"কিউবেক","name:br":"Kebek","name:ca":"Quebec","name:ckb":"کیبێک","name:co":"Quebec","name:cr":"ᑯᐯᒃ","name:cs":"Quebec","name:cy":"Québec","name:de":"Quebec","name:el":"Κεμπέκ","name:en":"Quebec","name:eo":"Kebekio","name:es":"Quebec","name:et":"Quebec","name:eu":"Quebec","name:fa":"کبک","name:fi":"Quebec","name:fr":"Québec","name:fy":"Kebek","name:gd":"Quebec","name:gl":"Quebec","name:grc":"Κεβέκ","name:gu":"ક્વિબેક","name:he":"קוויבק","name:hi":"क्यूबेक","name:ht":"Kebèk","name:hu":"Québec","name:hy":"Քվեբեկ","name:id":"Quebec","name:io":"Kebekia","name:it":"Québec","name:iu":"ᑯᐸᐃᒃ","name:ja":"ケベック州","name:jv":"Quebec","name:ka":"კვებეკი","name:kk":"Квебек","name:kn":"ಕ್ವಿಬೆಕ್","name:ko":"퀘벡","name:ks":"کیوبک","name:ku":"Kîbêk","name:kw":"Kebek","name:la":"Quebecum","name:ln":"Kébeki","name:lo":"ແຂວງເກແບັກ","name:lt":"Kvebekas","name:lv":"Kvebeka","name:mi":"Kuipeka","name:mk":"Квебек","name:ml":"ക്യൂബെക്","name:mn":"Кэбэк","name:moe":"Uepishtikueiau","name:mr":"क्वेबेक","name:ms":"Quebec","name:nl":"Quebec","name:nn":"Quebec","name:oc":"Quebèc","name:os":"Квебек","name:pa":"ਕੇਬੈੱਕ","name:pl":"Quebec","name:pt":"Quebec","name:qu":"Quebec pruwinsya","name:ru":"Квебек","name:sk":"Quebec","name:sq":"Kebeku","name:sr":"Квебек","name:su":"Quebec","name:sw":"Quebec","name:ta":"கியூபெக்","name:th":"รัฐควิเบก","name:tt":"Квебек","name:tzl":"Quebec","name:ug":"Kwébék","name:uk":"Квебек","name:ur":"کیوبک","name:uz":"Kvebek","name:vi":"Québec","name:wa":"Kebek","name:yi":"קוויבעק","name:zh":"魁北克","nat_ref":"506","ref":"QC","short_name":"Qc","short_name:en":"Que.","short_name:fr":"Qc","state_code":"QC","type":"boundary","wikidata":"Q176","wikipedia":"fr:Québec"},"id":"relation/61549"},
{"type":"Feature","geometry":{"type":"Polygon","coordinates":[[[-88.9865273,56.849167],[-90.0002746,56.2293703],[-90.6916123,55.7898519],[-91.5178908,55.2459603],[-92.3782805,54.6571124],[-92.9789581,54.2319105],[-93.6570511,53.7374915],[-94.4297409,53.28199],[-95.1536713,52.8415679],[-95.1536636,52.1289252],[-95.1536636,51.5033113],[-95.1536331,50.7426261],[-95.1536026,50.2355995],[-95.1533889,49.3844722],[-94.9573889,49.3701944],[-94.8255278,49.2943611],[-94.6834444,48.8841111],[-94.6908889,48.778],[-94.5876389,48.7175833],[-94.2610833,48.6965833],[-94.2445278,48.6534722],[-93.8480556,48.63075],[-93.7933611,48.5163056],[-93.4673889,48.5464444],[-93.3486667,48.6264444],[-92.9845833,48.6238333],[-92.7284167,48.5393889],[-92.6348889,48.5425556],[-92.6562222,48.4364722],[-92.5074722,48.4479722],[-92.3751667,48.2259444],[-92.2803889,48.2443611],[-92.2888333,48.3428056],[-92.0552222,48.3593611],[-92.0065278,48.2654167],[-91.8643611,48.2069444],[-91.7153611,48.1995],[-91.71175,48.1146389],[-91.4295833,48.0486667],[-91.2496944,48.0840833],[-91.0824722,48.1811389],[-90.88575,48.2459444],[-90.7614167,48.0983889],[-90.3747778,48.0909444],[-90.1325556,48.1117222],[-90.0233333,48.0848333],[-89.8988056,47.9881389],[-89.7675833,48.0227778],[-89.4892048,48.0145493],[-89.33755,47.974261],[-88.677442,48.245397],[-88.369862,48.306063],[-87.64768,48.028838],[-86.649648,47.6270422],[-85.318778,47.0794119],[-84.8601389,46.8889167],[-84.7628333,46.6343056],[-84.5568333,46.4608056],[-84.2258889,46.5340556],[-84.1111389,46.5042222],[-84.1460556,46.4187778],[-84.10825,46.2414444],[-83.9554722,46.05675],[-83.8263333,46.1188611],[-83.5719444,46.1057778],[-83.4337778,45.9981667],[-83.5971667,45.8212778],[-82.5186111,45.3386389],[-82.4082834,44.8582572],[-82.249914,44.165143],[-82.1228056,43.5911944],[-82.4553164,42.9267424],[-82.4673621,42.7624117],[-82.5234336,42.6073437],[-82.6678051,42.5333955],[-82.8281825,42.3734081],[-83.06341,42.3178047],[-83.1279986,42.2386949],[-83.1496826,42.0409889],[-83.0691231,41.8635813],[-82.6797168,41.6765629],[-82.3974747,41.6765597],[-81.2457036,42.2075661],[-80.0799323,42.3935512],[-78.9353817,42.8282908],[-78.9059228,42.900285],[-79.0116642,42.9852886],[-79.0073964,43.0659167],[-79.0703912,43.2623992],[-79.2006667,43.4504722],[-78.6903889,43.6311389],[-78.0089933,43.634745],[-76.7966872,43.6311274],[-76.4389444,44.0940556],[-76.3127222,44.1990556],[-76.1618056,44.2807222],[-75.9128333,44.3678056],[-75.7669167,44.5152778],[-75.5049167,44.7053611],[-75.2183889,44.8777778],[-74.9725556,44.9834722],[-74.8265278,45.0158611],[-74.6684979,45.0042784],[-74.4933934,45.0665667],[-74.3201062,45.1881599],[-74.4720083,45.3027727],[-74.3810283,45.5655785],[-74.6324449,45.6370947],[-74.9513014,45.6402244],[-75.1299805,45.5773348],[-75.6816024,45.459465],[-75.8117218,45.3730469],[-75.9736631,45.476181],[-76.2045894,45.5176353],[-76.3517686,45.4569206],[-76.659439,45.5598259],[-76.7686765,45.7340659],[-76.7646782,45.8514441],[-76.929131,45.8922348],[-76.9820409,45.7863885],[-77.193413,45.8659973],[-77.2722175,45.9429818],[-77.276878,46.0119437],[-77.5725024,46.162243],[-77.795181,46.1973456],[-78.1440207,46.2761307],[-78.3136599,46.2526666],[-78.3788602,46.288105],[-78.6797099,46.3178557],[-78.7282178,46.3826407],[-78.8542328,46.4411469],[-78.9876104,46.5458604],[-79.1647874,46.8191796],[-79.3177562,46.9357604],[-79.4453559,47.1088995],[-79.4268878,47.2516747],[-79.5864871,47.4448395],[-79.5169761,47.5332147],[-79.5175696,48.187132],[-79.5173491,48.8834266],[-79.5168913,49.9834137],[-79.51664,50.7834243],[-79.5164173,51.488565],[-79.7257233,51.3590933],[-79.6935501,51.29436],[-79.7912829,51.1607309],[-79.8825789,51.1721863],[-80.11523,51.29228],[-80.3851396,51.3386689],[-80.4989301,51.52763],[-80.5639672,51.697672],[-80.6534501,51.79188],[-80.8806019,51.8974994],[-80.9891031,52.0141268],[-81.32635,52.09943],[-81.4083678,52.1472205],[-81.5439205,52.363407],[-81.5242034,52.4371761],[-81.6527693,52.5071282],[-81.7575518,52.6069129],[-81.8712351,52.6613168],[-81.936868,52.7743485],[-82.1096706,52.8911109],[-82.2358813,52.9259619],[-82.2787853,53.0096869],[-82.2394278,53.1946998],[-82.0995428,53.2705004],[-82.2062087,53.5953448],[-82.1105608,53.7618907],[-82.2245297,54.039954],[-82.3958695,54.1912823],[-82.4205065,54.2768271],[-82.3868609,54.4182058],[-82.3155124,54.5237046],[-82.2537805,54.7200597],[-82.1950722,54.8088721],[-82.2768045,55.0324372],[-82.5274089,55.1655612],[-82.8529644,55.1477092],[-82.9741144,55.2263675],[-83.1362601,55.19365],[-83.70043,55.22191],[-83.8898206,55.2947317],[-84.0633401,55.2541199],[-84.17135,55.2743499],[-84.5111999,55.2316301],[-84.7945501,55.2359799],[-85.1112618,55.2906676],[-85.229942,55.3727894],[-85.4338935,55.4177443],[-85.6438933,55.557967],[-85.9670626,55.6613125],[-86.2694897,55.7088569],[-86.3748979,55.7642607],[-86.6439064,55.8284499],[-86.9012455,55.9140723],[-87.2169907,55.934453],[-87.4452481,56.0062854],[-87.6374001,56.1123126],[-87.8321373,56.3416003],[-87.9791099,56.4730713],[-88.2678509,56.5356601],[-88.4964101,56.65018],[-88.6632802,56.695785],[-88.82644,56.79329],[-88.9865273,56.849167]]]},"properties":{"@id":"relation/68841","ISO3166-2":"CA-ON","admin_level":"4","border_type":"province","boundary":"administrative","name":"Ontario","name:am":"ኦንቴሪዮ","name:ar":"أونتاريو","name:arc":"ܐܘܢܛܐܪܝܘ","name:be":"Антарыё","name:bg":"Онтарио","name:bn":"অন্টারিও","name:ca":"Ontàrio","name:ckb":"ئۆنتاریۆ","name:cr":"ᐅᐣᑌᕆᐅ","name:cs":"Ontario","name:el":"Οντάριο","name:en":"Ontario","name:eo":"Ontario","name:et":"Ontario","name:fa":"انتاریو","name:fr":"Ontario","name:gu":"ઑન્ટેરિયો","name:he":"אונטריו","name:hi":"ओन्टारियो","name:hy":"Օնտարիո (նահանգ)","name:iu":"ᐋᓐᑎᐅᕆᔪ","name:ja":"オンタリオ州","name:ka":"ონტარიო","name:ko":"온타리오","name:ku":"Ontaryo","name:lt":"Ontarijas","name:lv":"Ontārio","name:mk":"Онтарио","name:ml":"ഒണ്ടാറിയോ","name:mn":"Онтарио","name:mr":"ऑन्टारियो","name:oc":"Ontàrio","name:os":"Онтарио","name:pa":"ਉਂਟਾਰੀਓ","name:pt":"Ontário","name:qu":"Ontario pruwinsya","name:ru":"Онтарио","name:sk":"Ontário","name:sr":"Онтарио","name:ta":"ஒன்டாரியோ","name:te":"అంటారియో","name:th":"รัฐออนแทรีโอ","name:tl":"Ontario","name:tt":"Онтарио","name:uk":"Онтаріо","name:ur":"انٹاریو","name:uz":"Ontario","name:yi":"אנטעריא","name:zh":"安大略","ref":"ON","short_name":"Ont.","short_name:en":"Ont.","short_name:fr":"Ont.","state_code":"ON","type":"boundary","wikidata":"Q1904","wikipedia":"en:Ontario"},"id":"relation/68841"},
{"type":"Feature","geometry":{"type":"Polygon","coordinates":[[[-69.0509608,47.3000884],[-69.0507453,47.2564795],[-68.904872,47.1804728],[-68.5800475,47.2871149],[-68.3778565,47.2873746],[-68.3355953,47.3597324],[-68.2237199,47.3447044],[-67.9519423,47.1945349],[-67.882917,47.1044034],[-67.7901984,47.0672248],[-67.7882912,46.6012932],[-67.7812562,45.943451],[-67.8036458,45.6776648],[-67.4206642,45.5496908],[-67.5000683,45.4909171],[-67.4288481,45.3443598],[-67.4764207,45.2754179],[-67.3807172,45.1521642],[-67.2909938,45.1875815],[-67.1587805,45.1620022],[-67.0216524,44.953919],[-66.9652927,44.8288782],[-66.8854053,44.7942087],[-67.0388885,44.6242505],[-67.1569444,44.5825833],[-67.2525278,44.4964444],[-67.3012314,44.3596866],[-67.2199135,44.3186035],[-66.998068,44.3136735],[-66.8783689,44.2846296],[-66.680717,44.3074417],[-65.937983,44.9566588],[-65.0315832,45.2281504],[-64.9337496,45.4494573],[-64.540133,45.6842717],[-64.3610647,45.8328028],[-64.2552779,45.8785889],[-64.1496498,45.9799167],[-64.0253749,46.0225315],[-63.5748248,46.1008149],[-63.8776267,46.2495769],[-64.2223227,46.333083],[-64.3816245,46.4126746],[-64.5326865,46.5582912],[-64.5464194,46.8727701],[-64.4557681,47.0564791],[-63.328871,47.6024791],[-63.625121,48.0000632],[-64.2737962,48.2206848],[-64.4468737,48.2100036],[-65.1116784,47.9211034],[-65.5361394,47.8286068],[-65.6064082,47.9336109],[-65.8581465,48.0222337],[-66.1608784,48.0489975],[-66.301538,48.0327075],[-66.3537576,48.0812634],[-66.4799075,48.0835891],[-66.7004491,48.0053563],[-66.9214104,47.9843466],[-67.2116087,47.875524],[-67.3642304,47.8562987],[-67.6079053,47.936763],[-67.5977438,47.9999447],[-68.1225915,47.9996963],[-68.1227929,47.9163191],[-68.3823342,47.9161169],[-68.3834933,47.5531985],[-68.5692747,47.4271241],[-68.7996281,47.348942],[-69.0509608,47.3000884]]]},"properties":{"@id":"relation/68942","ISO3166-2":"CA-NB","admin_level":"4","border_type":"province","boundary":"administrative","name":"New Brunswick / Nouveau-Brunswick","name:af":"Nieu-Brunswyk","name:ar":"نيو برانزويك","name:arc":"ܢܝܘ ܒܪܘܢܙܘܝܩ","name:az":"Nyu-Brunsvik","name:bg":"Ню Брънзуик","name:br":"Brunswick Nevez","name:bs":"Novi Brunswick","name:ca":"Nova Brunsvic","name:ckb":"نیو برەنزویک","name:cs":"Nový Brunšvik","name:de":"Neubraunschweig","name:el":"Νέα Βρουνσβίκη","name:en":"New Brunswick","name:eo":"Nov-Brunsviko","name:es":"Nuevo Brunswick","name:et":"New Brunswick","name:eu":"Brunswick Berria","name:fa":"نیوبرانزویک","name:fr":"Nouveau-Brunswick","name:fy":"Nij-Brunswyk","name:gd":"Brunswick Nuadh","name:gl":"Nova Brunswick","name:he":"ניו ברנזוויק","name:hr":"Novi Brunswick","name:it":"Nuovo Brunswick","name:ja":"ニューブランズウィック州","name:ka":"ნიუ-ბრანსუიკი","name:ko":"뉴브런즈윅","name:kw":"Brunswick Nowydh","name:la":"Novum Brunsvicum","name:lt":"Naujasis Bransvikas","name:lv":"Ņūbransvika","name:mn":"Нью-Брансвик","name:mr":"न्यू ब्रुन्सविक","name:oc":"Nòu Brunswick","name:pl":"Nowy Brunszwik","name:pt":"Novo Brunsvique","name:ro":"Noul Brunswick","name:ru":"Нью-Брансуик","name:sh":"Novi Brunswick","name:sl":"Novi Brunswick","name:sr":"Њу Брансвик","name:th":"รัฐนิวบรันสวิก","name:uk":"Нью-Брансвік","name:zh-Hans":"新不伦瑞克省","name:zh-Hans-SG":"新布兰斯威省","name:zh-Hant-CN":"新不倫瑞克省","name:zh-Hant-HK":"紐賓士域省","name:zh-Hant-TW":"新布藍茲維省","official_name":"New Brunswick / Nouveau-Brunswick","province_code":"NB","ref":"NB","short_name":"N.B.;N.-B.","short_name:en":"N.B.","short_name:fr":"N.-B.","timezone":"America/Moncton","type":"boundary","wikidata":"Q1965","wikipedia":"en:New Brunswick"},"id":"relation/68942"},
{"type":"Feature","geometry":{"type":"MultiPolygon","coordinates":[[[[-59.7954339,44.2158789],[-59.931257,44.1368052],[-60.2178869,44.1734116],[-60.3884275,44.095652],[-60.4420607,43.9834608],[-60.4251448,43.9079425],[-60.287433,43.7911023],[-60.1189568,43.7376134],[-59.9011423,43.7254044],[-59.6456642,43.7812222],[-59.4393472,43.9117765],[-59.364036,44.0323316],[-59.3740492,44.1062351],[-59.4845044,44.2156261],[-59.6077156,44.2487144],[-59.7954339,44.2158789]]],[[[-60.4037537,47.7610742],[-60.7626788,47.4233275],[-60.9918489,47.3294321],[-61.3504814,47.0097234],[-61.3993669,46.8399985],[-61.5813583,46.4376179],[-61.7818549,46.2156982],[-62.21448,45.9431236],[-62.5330836,45.8609372],[-62.7775294,45.8494597],[-63.1428248,45.9221107],[-63.4064966,46.0118372],[-63.5748248,46.1008149],[-64.0253749,46.0225315],[-64.1496498,45.9799167],[-64.2552779,45.8785889],[-64.3610647,45.8328028],[-64.540133,45.6842717],[-64.9337496,45.4494573],[-65.0315832,45.2281504],[-65.937983,44.9566588],[-66.680717,44.3074417],[-66.6349908,44.1140058],[-66.4747877,43.9853023],[-66.4181787,43.5903465],[-66.2985216,43.3382886],[-66.2216864,43.2538674],[-66.0109906,43.1912243],[-65.6224082,43.1881689],[-65.5087465,43.2052135],[-65.2038871,43.3117929],[-64.6237589,43.6479675],[-64.4433904,43.8572503],[-64.1565908,44.0156011],[-63.9950794,44.1468761],[-63.7199183,44.2341423],[-63.4825635,44.2403255],[-63.3465664,44.3014555],[-63.1484808,44.4328018],[-62.7534101,44.4740248],[-61.8968845,44.7330623],[-61.2617211,44.977289],[-61.0592384,45.0023414],[-60.7636572,45.1143247],[-60.4938071,45.4028122],[-60.3021628,45.4616209],[-59.9207682,45.6149806],[-59.8032808,45.7139686],[-59.6547172,45.7608379],[-59.4865685,45.8578998],[-59.378878,46.0023037],[-59.4069073,46.129982],[-59.5489668,46.3093305],[-59.6256427,46.3540547],[-59.9123732,46.4293729],[-60.0456749,46.6455097],[-60.012235,46.8675726],[-60.0488066,46.9597461],[-59.2887119,47.3733812],[-60.4037537,47.7610742]]]]},"properties":{"@id":"relation/390558","ISO3166-2":"CA-NS","admin_level":"4","border_type":"province","boundary":"administrative","land_area":"administrative","name":"Nova Scotia","name:ar":"نوفا سكوشا","name:az":"Yeni Şotlandiya","name:be":"Правінцыя Новая Шатландыя","name:bg":"Нова Скотия","name:br":"Skos Nevez","name:bs":"Nova Škotska","name:ca":"Nova Escòcia","name:ckb":"نۆڤا سکۆشا","name:cs":"Nové Skotsko","name:de":"Neuschottland","name:el":"Νέα Σκωτία","name:en":"Nova Scotia","name:eo":"Nov-Skotio","name:es":"Nueva Escocia","name:et":"Nova Scotia","name:eu":"Eskozia Berria","name:fa":"نوا اسکوشیا","name:fr":"Nouvelle-Écosse","name:fy":"Nij-Skotlân","name:ga":"Albain Nua","name:gd":"Alba Nuadh","name:gl":"Nova Escocia","name:gv":"Nalbin Noa","name:he":"נובה סקוטיה","name:hr":"Nova Škotska","name:hu":"Új-Skócia","name:hy":"Նոր Շոտլանդիա","name:io":"Nova Skotia","name:it":"Nuova Scozia","name:ja":"ノバスコシア州","name:ka":"ახალი შოტლანდია","name:ko":"노바스코샤 주","name:kw":"Alban Nowydh","name:lt":"Naujoji Škotija","name:lv":"Jaunskotija","name:mk":"Нова Шкотска","name:mn":"Нова Скоша","name:mr":"नोव्हा स्कॉशिया","name:oc":"Nòva Escòcia","name:os":"Ног Шотланди","name:pa":"ਨੋਵਾ ਸਕੋਸ਼ਾ","name:pl":"Nowa Szkocja","name:pt":"Nova Escócia","name:qu":"Nova Scotia pruwinsya","name:ro":"Noua Scoție","name:ru":"Новая Шотландия","name:sk":"Nové Škótsko","name:sl":"Nova Škotska","name:sq":"Skocia e Re","name:sr":"Нова Шкотска","name:ta":"நோவா ஸ்கோசியா","name:th":"รัฐโนวาสโกเชีย","name:tr":"Yeni İskoçya","name:ug":"Nowa Skotiye Ölkisi","name:uk":"Нова Шотландія","name:ur":"نووا سکوشیا","name:uz":"Yangi Shotlandiya","name:yi":"נאווע סקאשע","name:zh":"新斯科舍省","population":"923598","population:date":"2016","province_code":"NS","ref":"NS","short_name":"N.S.","short_name:en":"N.S.","short_name:fr":"N.-É.","type":"boundary","wikidata":"Q1952","wikipedia":"en:Nova Scotia"},"id":"relation/390558"},
{"type":"Feature","geometry":{"type":"Polygon","coordinates":[[[-79.5164173,51.488565],[-79.5408805,51.5517232],[-79.3113113,51.6648896],[-79.2229057,51.6255302],[-79.24235,51.54296],[-79.0952101,51.53297],[-78.8987501,51.3817299],[-78.7643981,51.4823985],[-78.8563072,51.6198041],[-78.9446299,51.6602393],[-79.0249023,51.7725463],[-78.8366445,51.8442627],[-78.8578599,51.9394601],[-78.7110329,51.9842723],[-78.7026215,52.0423555],[-78.5497999,52.1587696],[-78.5642196,52.2891568],[-78.5125129,52.3156746],[-78.5122061,52.4526096],[-78.5684896,52.5136354],[-78.7666619,52.5567466],[-78.7482399,52.6878001],[-78.86126,52.7480601],[-78.75138,52.83572],[-78.8803464,52.8768643],[-78.9634302,53.1824078],[-78.9109889,53.2589924],[-78.9750485,53.3268878],[-78.9945099,53.4432599],[-79.1036799,53.5165299],[-78.94564,53.53992],[-79.0627036,53.8428279],[-79.0075199,53.91581],[-79.1331101,54.08679],[-79.49395,54.3739001],[-79.4965,54.49625],[-79.5671601,54.6148],[-79.7188032,54.6485305],[-79.5742551,54.7191112],[-79.2277229,54.7980997],[-78.9932442,54.83157],[-78.5455781,54.9883258],[-78.3162707,55.0428212],[-78.1903625,55.1165693],[-77.8436768,55.2585488],[-77.5826919,55.3825512],[-77.1534101,55.6593],[-77.0946801,55.7435946],[-76.72211,56.02058],[-76.6518953,56.1943815],[-76.5481109,56.3010205],[-76.5330699,56.8256601],[-76.5689401,56.9407],[-76.5500837,57.0960628],[-76.6607775,57.3695932],[-76.866934,57.6275212],[-76.8527453,57.6735869],[-77.2528138,58.0495353],[-77.6496098,58.2630426],[-78.026619,58.3641514],[-78.0573034,58.4271397],[-78.4251601,58.54098],[-78.4867699,58.6176201],[-78.5788001,58.8974699],[-78.3324301,58.92898],[-78.2885152,59.0050724],[-78.11892,59.149],[-78.1245399,59.20461],[-77.8576987,59.2842361],[-77.7672182,59.41545],[-77.8939432,59.502556],[-77.7526967,59.5279724],[-77.7539083,59.6158743],[-77.5745616,59.7479642],[-77.3235726,59.8043254],[-77.402434,59.9001106],[-77.3039404,59.9861445],[-77.3897899,60.040262],[-77.5716282,60.0419395],[-77.6097504,60.0927255],[-77.4982472,60.1970367],[-77.6526893,60.3654608],[-77.7745144,60.394638],[-77.5846374,60.5018262],[-77.8049041,60.6048123],[-77.6339284,60.7646636],[-77.8657128,60.7631202],[-78.1793399,60.7929742],[-78.19231,60.8598301],[-77.912696,61.0333617],[-77.8291559,61.0504187],[-77.7568191,61.1922943],[-77.7641563,61.3790332],[-77.6256429,61.458932],[-77.6447957,61.5719324],[-77.7892055,61.68467],[-77.9398075,61.6792724],[-78.0820763,61.8492959],[-78.146267,61.9982754],[-78.1699669,62.273384],[-78.0356526,62.3545829],[-77.6946259,62.4988802],[-77.4225398,62.5802541],[-77.0610237,62.529724],[-76.8131559,62.5236071],[-75.5244799,62.25335],[-75.3461266,62.3172882],[-74.9672599,62.26547],[-74.73904,62.15612],[-74.7115803,62.2507834],[-74.4034593,62.2455852],[-74.0048289,62.3658414],[-73.8491267,62.4634911],[-73.7098342,62.4833794],[-73.547577,62.387473],[-73.1915188,62.3142775],[-73.0576819,62.18297],[-72.6135179,62.1119672],[-72.5899482,61.9675584],[-72.3933598,61.8977057],[-72.2133886,61.8758941],[-72.1449872,61.7992142],[-71.9100648,61.6575179],[-71.8099201,61.6957],[-71.5546701,61.6208399],[-71.73138,61.5512401],[-71.7693599,61.4656101],[-71.64568,61.4080301],[-71.72719,61.28302],[-71.4361417,61.2205872],[-71.3770795,61.1459018],[-71.2155,61.16225],[-70.983,61.12675],[-70.85275,61.07],[-70.459,61.042],[-70.29746,61.1004001],[-70.1049614,61.0668612],[-70.0740731,60.8536382],[-69.872886,60.8527708],[-69.6317768,60.894626],[-69.6844769,60.9555534],[-69.6115261,61.0793134],[-69.4947199,61.0646282],[-69.3728459,60.920524],[-69.3634109,60.8075943],[-69.6962296,60.6905781],[-69.6648482,60.6049537],[-69.8038577,60.5249211],[-69.6680992,60.3579892],[-69.7500007,60.303639],[-69.5468963,60.1982689],[-69.5404519,60.0929625],[-69.618854,59.907406],[-69.4899778,59.8691976],[-69.6132993,59.7041029],[-69.4829403,59.663148],[-69.6769027,59.5152976],[-69.6064062,59.3620241],[-69.2689647,59.342679],[-69.2059646,59.2542191],[-69.2737288,59.1962708],[-69.1549802,59.1476244],[-69.1020732,59.0270246],[-69.1698604,58.9269495],[-68.9127262,58.8973393],[-68.8192609,58.9276421],[-68.5241739,58.8930666],[-68.3389055,58.8161173],[-68.348308,58.6935097],[-68.2761485,58.6034841],[-68.1241847,58.5624876],[-68,58.587462],[-67.8992035,58.4942283],[-67.7177087,58.4696731],[-67.7029365,58.3417502],[-67.591085,58.2602552],[-67.3819741,58.3176006],[-67.1848144,58.416886],[-67.0134019,58.4434419],[-66.9569782,58.5099319],[-66.6758379,58.5347538],[-66.4452377,58.8481497],[-66.0958658,58.8615097],[-65.9345328,58.9777589],[-65.9255938,59.0585212],[-65.7988351,59.2069597],[-65.8363457,59.2904708],[-65.5274173,59.4694265],[-65.4380594,59.5711158],[-65.5592203,59.7359253],[-65.4534678,59.8238236],[-65.2316338,59.9313244],[-64.8631521,60.3012283],[-64.8629416,60.3614625],[-64.6270717,60.3464833],[-64.5174759,60.3043982],[-64.4914076,60.3726056],[-64.3505412,60.3813107],[-64.0260853,60.4770255],[-64.1747967,60.7242294],[-64.33399,61.2816],[-64.1236414,61.4952158],[-64.13186,61.5870067],[-64.2766956,61.807735],[-64.0544161,62.1919767],[-63.3924758,62.6528183],[-63.2464994,62.9205125],[-63.4548733,63.4644522],[-63.4936881,63.6802592],[-63.8211472,64.1115608],[-63.9622978,64.2536994],[-62.9222692,64.7353061],[-62.8198972,64.80718],[-62.519815,65.1699844],[-61.7935503,65.4931139],[-61.6925469,65.5596106],[-61.4757461,65.9394378],[-61.0394444,66.2539125],[-60.7788575,66.5632189],[-60.7606883,66.6389275],[-60.8438094,66.7690419],[-61.3131525,67.0532733],[-61.6905167,67.2431142],[-62.1326814,67.3878492],[-62.7848022,67.4994897],[-63.5445689,67.7804181],[-64.3085558,68.1073769],[-64.6791811,68.2164539],[-65.3661772,68.3583556],[-66.0929592,68.6415006],[-66.0999775,69.2456419],[-66.1384853,69.3292086],[-66.6425278,69.9087892],[-66.6596575,70.0085686],[-66.7839231,70.1266178],[-67.2543661,70.3433319],[-67.673365,70.6057847],[-68.0881919,70.7644803],[-68.5011758,70.832695],[-68.8716811,70.9459386],[-69.4573556,71.0364753],[-70.3575906,71.2672875],[-70.5753939,71.3445478],[-70.9559567,71.5794478],[-71.2312869,71.6682256],[-71.5884242,71.7376678],[-72.4302183,71.8564211],[-72.9355089,71.8849153],[-73.142975,71.9231439],[-73.6952158,72.1898056],[-74.1928742,72.3643303],[-74.4468667,72.4173122],[-74.5095164,72.5399633],[-74.6871014,72.6321697],[-75.0260664,72.6942642],[-75.3753619,72.9129239],[-75.6649211,73.1997053],[-75.8792839,73.2675358],[-76.0443969,73.3956961],[-76.4391117,73.5134217],[-76.7534481,73.6690103],[-77.3257469,73.7553803],[-77.7343069,73.8388917],[-78.2741711,73.8720622],[-79.335055,73.8567247],[-79.4521922,74.5293917],[-78.9800061,74.6665383],[-78.5842744,74.8285989],[-78.5594692,74.9120325],[-78.70919,75.1958333],[-78.6969586,75.3499339],[-78.067935,75.7735547],[-78.0053669,76.0246897],[-77.6052864,76.3767867],[-77.0866281,76.5481936],[-76.94887,76.627495],[-76.8710619,76.7993994],[-77.1165642,77.0381094],[-77.27049,77.3469919],[-77.0606333,77.4530567],[-75.2518461,77.8076631],[-74.7258961,77.9762414],[-73.6149539,78.4963895],[-73.1099334,78.753813],[-73.4490175,79.1354869],[-72.3721983,79.3878733],[-71.5038997,79.5047411],[-70.9686311,79.5342919],[-70.2589306,79.64734],[-68.7128799,80.1831693],[-68.3351215,80.4158037],[-67.1205487,80.74915],[-66.2686821,80.8338786],[-64.1856085,81.2997333],[-62.1623333,81.8676111],[-59.9949722,82.2176111],[-59.6263356,82.2996308],[-59.8903703,82.5053947],[-62.2532458,82.9473056],[-62.8061125,83.0058114],[-64.5399525,83.1045469],[-66.2237128,83.1425961],[-69.0402661,83.2954644],[-69.7647364,83.3110572],[-71.4855353,83.2997533],[-74.3234081,83.3348028],[-77.4613292,83.2767408],[-80.7700644,83.1156442],[-82.3901442,82.9832467],[-86.6762342,82.621145],[-87.1030756,82.5593164],[-87.9621653,82.3562],[-88.7779539,82.2768689],[-91.2054022,82.1249656],[-91.7334431,82.0640275],[-92.7693917,81.8605494],[-95.2835931,81.4716833],[-95.5203903,81.4158081],[-97.2606739,80.74584],[-97.5493894,80.5137817],[-99.7443375,80.3718636],[-100.428545,80.3132283],[-103.583863,79.9162881],[-106.145572,79.5459017],[-110.0027326,79.1299817],[-110.003308,78.6946255],[-110.0028065,77.920266],[-110.0024026,76.4872107],[-110.0023302,75.902369],[-110.0022333,74.8438895],[-110.0020778,73.9393807],[-110.001922,72.9807927],[-110.0018855,72.3400018],[-110.0018449,71.7396195],[-110.0018109,70.8087737],[-110.0016874,70.0004973],[-111.3899,70.0004767],[-112.5019148,70.0004697],[-112.436602,69.8507677],[-112.8852822,69.8338425],[-112.8852879,70.000467],[-114.4835534,70.0004526],[-115.3759598,70.0004503],[-117.1169164,70.0004251],[-117.1465907,69.8893186],[-116.6325479,69.6364146],[-118.4,69.6143729],[-120.680556,69.5563022],[-120.680425,68.7768344],[-120.680307,68.0002875],[-119.2436774,67.6254092],[-117.6566843,67.1824101],[-116.6747734,66.8918173],[-115.1744927,66.4218978],[-113.281331,65.7810126],[-112.5012946,65.5003203],[-110.6678591,65.5003267],[-109.3344286,64.8336372],[-107.0317709,64.6871393],[-105,64.5264798],[-102.9799046,64.3367197],[-102.0006191,64.2336722],[-102.0019397,63.5161474],[-102.00369,62.5059477],[-102.005025,61.6887627],[-102.0067337,60.5735751],[-102.0075681,59.9994439],[-100.626458,59.9994515],[-99.3889653,59.9994236],[-98.5075072,59.9994422],[-97.4528582,59.9994256],[-95.7043209,59.9994115],[-94.8261809,59.9994213],[-94.78825,59.7635],[-94.82625,59.60325],[-94.7355,59.4465],[-94.71025,59.3235],[-94.786,59.2675],[-94.775,59.03325],[-94.51146,58.8229899],[-94.4266371,58.7028283],[-94.2643636,58.7894073],[-94.0794422,58.7629386],[-93.6407469,58.7882069],[-93.1970966,58.7544014],[-93.144536,58.6868085],[-93.1318546,58.5344765],[-93.0251563,58.3383287],[-92.7977477,58.0406904],[-92.8139922,58.0179092],[-92.70248,57.7620199],[-92.452,57.44219],[-92.4489939,57.2374011],[-92.6164133,56.978701],[-92.4822072,57.0346732],[-92.2097734,57.0724932],[-91.9770185,57.0558951],[-91.1142999,57.25387],[-90.8445799,57.2609301],[-90.3113,57.13961],[-90.16176,57.07432],[-89.6833628,56.94967],[-89.3550039,56.9199896],[-88.9865273,56.849167],[-88.82644,56.79329],[-88.6632802,56.695785],[-88.4964101,56.65018],[-88.2678509,56.5356601],[-87.9791099,56.4730713],[-87.8321373,56.3416003],[-87.6374001,56.1123126],[-87.4452481,56.0062854],[-87.2169907,55.934453],[-86.9012455,55.9140723],[-86.6439064,55.8284499],[-86.3748979,55.7642607],[-86.2694897,55.7088569],[-85.9670626,55.6613125],[-85.6438933,55.557967],[-85.4338935,55.4177443],[-85.229942,55.3727894],[-85.1112618,55.2906676],[-84.7945501,55.2359799],[-84.5111999,55.2316301],[-84.17135,55.2743499],[-84.0633401,55.2541199],[-83.8898206,55.2947317],[-83.70043,55.22191],[-83.1362601,55.19365],[-82.9741144,55.2263675],[-82.8529644,55.1477092],[-82.5274089,55.1655612],[-82.2768045,55.0324372],[-82.1950722,54.8088721],[-82.2537805,54.7200597],[-82.3155124,54.5237046],[-82.3868609,54.4182058],[-82.4205065,54.2768271],[-82.3958695,54.1912823],[-82.2245297,54.039954],[-82.1105608,53.7618907],[-82.2062087,53.5953448],[-82.0995428,53.2705004],[-82.2394278,53.1946998],[-82.2787853,53.0096869],[-82.2358813,52.9259619],[-82.1096706,52.8911109],[-81.936868,52.7743485],[-81.8712351,52.6613168],[-81.7575518,52.6069129],[-81.6527693,52.5071282],[-81.5242034,52.4371761],[-81.5439205,52.363407],[-81.4083678,52.1472205],[-81.32635,52.09943],[-80.9891031,52.0141268],[-80.8806019,51.8974994],[-80.6534501,51.79188],[-80.5639672,51.697672],[-80.4989301,51.52763],[-80.3851396,51.3386689],[-80.11523,51.29228],[-79.8825789,51.1721863],[-79.7912829,51.1607309],[-79.6935501,51.29436],[-79.7257233,51.3590933],[-79.5164173,51.488565]]]},"properties":{"@id":"relation/390840","ISO3166-2":"CA-NU","admin_level":"4","border_type":"province","boundary":"administrative","name":"ᓄᓇᕗᑦ Nunavut","name:af":"Nunavut","name:ar":"نونافوت","name:az":"Nunavut","name:be":"Нунавут","name:bg":"Нунавут","name:br":"Nunavut","name:bs":"Nunavut","name:ca":"Nunavut","name:ckb":"نوناڤۆت","name:cs":"Nunavut","name:cy":"Nunavut","name:da":"Nunavut","name:de":"Nunavut","name:el":"Νούναβουτ","name:en":"Nunavut","name:eo":"Nunavuto","name:es":"Nunavut","name:et":"Nunavut","name:eu":"Nunavut","name:fa":"نوناووت","name:fi":"Nunavut","name:fo":"Nunavut","name:fr":"Nunavut","name:fy":"Nûnavût","name:ga":"Nunavut","name:gd":"Nunavut","name:gl":"Nunavut","name:gsw":"Nùnavùt","name:gv":"Nunavut","name:he":"נונאווט","name:hr":"Nunavut","name:hu":"Nunavut","name:hy":"Նունավուտ","name:id":"Nunavut","name:io":"Nunavut","name:is":"Núnavút","name:it":"Nunavut","name:iu":"ᓄᓇᕗᑦ","name:ja":"ヌナブト準州","name:ka":"ნუნავუტი","name:kk":"Нунавут","name:kl":"Nunavut","name:ko":"누나부트 준주","name:kw":"Nunavut","name:la":"Nunavut","name:lb":"Nunavut","name:lt":"Nunavutas","name:lv":"Nunavuta","name:mk":"Нунавут","name:mn":"Нунавут","name:mr":"नुनाव्हुत","name:ms":"Nunavut","name:nl":"Nunavut","name:nn":"Nunavut","name:no":"Nunavut","name:oc":"Nunavut","name:os":"Нунавут","name:pa":"ਨੂਨਾਵੁਤ","name:pl":"Nunavut","name:pt":"Nunavut","name:ro":"Nunavut","name:ru":"Нунавут","name:sc":"Nunavut","name:sk":"Nunavut","name:sl":"Nunavut","name:sq":"Nunavut","name:sr":"Нунавут","name:sv":"Nunavut","name:sw":"Nunavut","name:ta":"நூனவுட்","name:th":"นูนาวุต","name:tl":"Nunavut","name:tr":"Nunavut","name:uk":"Нунавут","name:ur":"نناوت","name:uz":"Nunavut","name:vi":"Nunavut","name:vo":"Nunavut","name:zh":"努纳武特地区","political_division":"parl_const","ref":"NU","short_name":"Nvt.","short_name:en":"Nvt.","short_name:fr":"Nt","state_code":"NU","type":"boundary","wikidata":"Q2023","wikipedia":"en:Nunavut"},"id":"relation/390840"},
{"type":"Feature","geometry":{"type":"Polygon","coordinates":[[[-101.361989,48.9994722],[-100.4708611,48.9993611],[-99.5407222,48.9993889],[-98.2106389,49.0002778],[-97.4816668,49.0004556],[-96.4900819,49.0001113],[-95.1531944,48.9988611],[-95.1533889,49.3844722],[-95.1536026,50.2355995],[-95.1536331,50.7426261],[-95.1536636,51.5033113],[-95.1536636,52.1289252],[-95.1536713,52.8415679],[-94.4297409,53.28199],[-93.6570511,53.7374915],[-92.9789581,54.2319105],[-92.3782805,54.6571124],[-91.5178908,55.2459603],[-90.6916123,55.7898519],[-90.0002746,56.2293703],[-88.9865273,56.849167],[-89.3550039,56.9199896],[-89.6833628,56.94967],[-90.16176,57.07432],[-90.3113,57.13961],[-90.8445799,57.2609301],[-91.1142999,57.25387],[-91.9770185,57.0558951],[-92.2097734,57.0724932],[-92.4822072,57.0346732],[-92.6164133,56.978701],[-92.4489939,57.2374011],[-92.452,57.44219],[-92.70248,57.7620199],[-92.8139922,58.0179092],[-92.7977477,58.0406904],[-93.0251563,58.3383287],[-93.1318546,58.5344765],[-93.144536,58.6868085],[-93.1970966,58.7544014],[-93.6407469,58.7882069],[-94.0794422,58.7629386],[-94.2643636,58.7894073],[-94.4266371,58.7028283],[-94.51146,58.8229899],[-94.775,59.03325],[-94.786,59.2675],[-94.71025,59.3235],[-94.7355,59.4465],[-94.82625,59.60325],[-94.78825,59.7635],[-94.8261809,59.9994213],[-95.7043209,59.9994115],[-97.4528582,59.9994256],[-98.5075072,59.9994422],[-99.3889653,59.9994236],[-100.626458,59.9994515],[-102.0075681,59.9994439],[-102.0075615,59.1640969],[-102.0074584,58.1858205],[-102.0074137,57.4962907],[-102.0074004,56.9811481],[-102.0072905,56.1584471],[-102.004039,55.8093815],[-101.9637277,55.8093992],[-101.9638087,55.46042],[-101.9241924,55.4604325],[-101.9240555,55.111545],[-101.8852911,55.1115689],[-101.8853319,54.7625693],[-101.8474228,54.7625602],[-101.8474842,54.4135639],[-101.8104613,54.4135399],[-101.8104345,54.0644058],[-101.7713228,54.0644025],[-101.7706467,53.7108988],[-101.735099,53.7107061],[-101.7355437,53.3658084],[-101.7006057,53.3657811],[-101.7006943,53.0164508],[-101.6716045,53.0164479],[-101.671588,52.6672606],[-101.6377053,52.6672739],[-101.6378127,52.3181495],[-101.6090547,52.318158],[-101.6093112,51.9685811],[-101.5772302,51.9685683],[-101.5705439,51.3018759],[-101.5391379,51.3018564],[-101.5389827,50.9485807],[-101.5086946,50.9484851],[-101.5087288,50.5943934],[-101.4769949,50.5943875],[-101.4767208,50.2405059],[-101.4471535,50.2405433],[-101.4471985,49.88666],[-101.417546,49.8866701],[-101.4177744,49.5327142],[-101.3925639,49.5327312],[-101.3922176,49.1777123],[-101.361989,48.9994722]]]},"properties":{"@id":"relation/390841","ISO3166-2":"CA-MB","admin_level":"4","alt_name:cs":"Provincie Manitoba","alt_name:de":"Provinz Manitoba","alt_name:es":"Provincia de Manitoba","border_type":"province","boundary":"administrative","name":"Manitoba","name:am":"ማኒቶባ","name:ar":"مانيتوبا","name:be":"Правінцыя Манітоба","name:bg":"Манитоба","name:br":"Manitoba","name:ckb":"مانیتۆبا","name:cr":"ᒪᓂᑐᐸ","name:cs":"Manitoba","name:de":"Manitoba","name:el":"Μανιτόμπα","name:en":"Manitoba","name:eo":"Manitobo","name:es":"Manitoba","name:et":"Manitoba provints","name:fa":"مانیتوبا","name:fr":"Manitoba","name:he":"מניטובה","name:hi":"मानिटोबा","name:hy":"Մանիթոբա (նահանգ)","name:ja":"マニトバ州","name:ka":"მანიტობა","name:kk":"Манитоба","name:ko":"매니토바 주","name:ku":"Manîtoba","name:lt":"Manitoba","name:mk":"Манитоба","name:mn":"Манитоба","name:mr":"मॅनिटोबा","name:my":"မနီတိုးဗားပြည်နယ်","name:oc":"Manitòba","name:os":"Манитобæ","name:pa":"ਮਾਨੀਟੋਬਾ","name:qu":"Manitoba pruwinsya","name:ru":"Манитоба","name:sr":"Манитоба","name:ta":"மானிட்டோபா","name:th":"รัฐแมนิโทบา","name:ug":"Manitoba Ölkisi","name:uk":"Манітоба","name:ur":"مانیٹوبا","name:uz":"Manitoba","name:yi":"מאניטאבא","name:zh":"曼尼托巴","ref":"MB","short_name":"Man.","short_name:en":"Man.","short_name:fr":"Man.","state_code":"MB","type":"boundary","wikidata":"Q1948","wikipedia":"en:Manitoba"},"id":"relation/390841"},
{"type":"Feature","geometry":{"type":"MultiPolygon","coordinates":[[[[-131.7509311,53.2914604],[-131.8685935,53.517178],[-131.7893626,53.6986256],[-131.7906923,53.7803626],[-131.6183677,53.9808401],[-131.577148,54.2030919],[-131.9215326,54.0831458],[-132.0930601,54.0769053],[-132.267247,54.1509502],[-132.4355825,54.1462969],[-132.6515386,54.1911225],[-132.8329235,54.1740037],[-132.959514,54.2896839],[-133.1354808,54.272009],[-133.1766928,54.119266],[-133.1407324,54.0475412],[-133.2231044,53.9268253],[-133.1830808,53.7597509],[-133.0860743,53.7175483],[-133.0530907,53.539936],[-132.8000013,53.3715026],[-132.7707598,53.225787],[-132.6783289,53.2143245],[-132.6525637,53.1000099],[-132.2458235,52.7572419],[-131.8152135,52.4700516],[-131.722793,52.4412411],[-131.6104737,52.2953282],[-131.2765277,52.0596703],[-131.1863705,52.0444541],[-131.1298941,51.9422535],[-130.9933085,51.8735938],[-130.8587802,52.0693848],[-130.9281978,52.2407001],[-131.1333606,52.3801737],[-131.1691429,52.4705624],[-131.3888132,52.7537776],[-131.4063736,52.8839557],[-131.5196703,52.9785314],[-131.5409451,53.0968064],[-131.7509311,53.2914604]]],[[[-139.0613278,59.9996374],[-138.707377,59.9063253],[-138.626201,59.7685806],[-137.607356,59.2438033],[-137.451725,58.9083489],[-137.282846,58.9999978],[-136.828728,59.1599597],[-136.584444,59.1658544],[-136.469246,59.2840789],[-136.477156,59.4658242],[-136.305021,59.4645178],[-136.1929042,59.6400267],[-135.9526453,59.6621664],[-135.4791608,59.7980414],[-135.2527656,59.6982786],[-135.0289025,59.5636592],[-135.1010194,59.4275314],[-134.9599053,59.2809264],[-134.7007158,59.2490108],[-134.6791169,59.1922747],[-134.4833953,59.1316033],[-134.3818769,59.0387633],[-134.4071486,58.97921],[-134.258073,58.8610358],[-133.840506,58.7294442],[-133.7071183,58.6122742],[-133.377303,58.4305483],[-133.461504,58.3877233],[-133.172311,58.1536756],[-133.070095,58.0003406],[-132.869367,57.8397131],[-132.553684,57.4965136],[-132.369791,57.3497467],[-132.247921,57.2112533],[-132.3689831,57.0915128],[-132.045191,57.0450592],[-132.123567,56.8736483],[-131.8728761,56.805995],[-131.9010717,56.753675],[-131.835327,56.5992028],[-131.581067,56.6122319],[-131.471829,56.5525902],[-131.087348,56.4060047],[-130.78198,56.3668442],[-130.6233081,56.2668783],[-130.46787,56.2430533],[-130.426006,56.1415614],[-130.246219,56.0964114],[-130.103798,56.1227981],[-130.003485,56.008075],[-130.0176459,55.9119531],[-130.1524057,55.7662874],[-130.1279045,55.5810345],[-130.041216,55.4517254],[-129.9741673,55.2819188],[-130.1028417,55.1926024],[-130.1875628,55.0628418],[-130.345938,54.9177286],[-130.6590382,54.7630584],[-130.5934109,54.6676987],[-130.7228789,54.6465772],[-131.2023705,54.619374],[-131.2263261,54.5454055],[-131.0103799,54.3660252],[-130.9238798,54.2629141],[-130.9345214,54.1072],[-130.8232388,54.0365834],[-130.8134998,53.8494086],[-130.7435869,53.7739089],[-130.4850888,53.7119179],[-130.6239341,53.6519545],[-130.7188901,53.5023727],[-130.6981196,53.4358621],[-130.3981196,53.3775708],[-130.2169239,53.2977523],[-130.0671812,53.1597982],[-129.871276,53.1],[-129.7,52.9],[-129.4514454,52.9079087],[-129.5335111,52.6850567],[-129.5030873,52.5034341],[-129.3711199,52.455038],[-129.1789784,52.4848215],[-128.9695762,52.3551627],[-128.8219753,52.321449],[-128.7604294,52.2213168],[-128.6353987,52.2],[-128.502355,52.069848],[-128.5849565,51.9080181],[-128.5376088,51.8511376],[-128.3607617,51.7996295],[-128.2398278,51.6685217],[-128.1601122,51.4534184],[-127.9095373,51.3453063],[-127.8855614,51.2096163],[-127.8162328,51.0485085],[-127.8630466,50.9745748],[-127.9730387,50.9715004],[-128.264649,50.8555335],[-128.4976895,50.8295051],[-128.7441227,50.8828412],[-128.8906063,50.8608473],[-129.0642841,50.897628],[-129.1312574,50.8343501],[-128.7843961,50.7413649],[-128.4967052,50.7604911],[-128.3856581,50.6069683],[-128.1526716,50.4374692],[-128.0378756,50.4],[-128.0438948,50.3333392],[-127.9501674,50.243344],[-127.9710764,50.0868734],[-127.8270572,50.0380074],[-127.6898538,50.0690454],[-127.6095846,49.9938165],[-127.331327,49.9116149],[-127.0689739,49.7669365],[-126.8491178,49.578321],[-126.624873,49.5085157],[-126.6000004,49.348048],[-126.4096135,49.3665106],[-126.2756345,49.2520412],[-126.1670377,49.2047354],[-126.1419405,49.1406626],[-125.7710343,49.0217377],[-125.7206333,48.9679141],[-125.4,48.8010355],[-125.1622118,48.7],[-124.8784985,48.6290856],[-124.72725,48.4934444],[-124.0120556,48.2966667],[-123.5412222,48.2245556],[-123.2484444,48.2840278],[-123.1151389,48.4228333],[-123.2189444,48.5487222],[-123.2678889,48.694],[-123.0085,48.7671111],[-123.0085,48.8312222],[-123.3222397,49.0020717],[-121.7595589,48.9973042],[-120.6695672,49.0000989],[-120.0024598,48.9993186],[-119.0471125,49.0000753],[-117.9921125,49.000295],[-117.1348989,48.998805],[-116.4992297,48.999875],[-115.2625531,48.9996331],[-114.0682072,48.9988717],[-114.1750821,49.1640439],[-114.4023105,49.2131815],[-114.3932398,49.2571155],[-114.5913972,49.3969948],[-114.5959493,49.5017336],[-114.7324644,49.574594],[-114.6398423,49.8266297],[-114.6919559,49.8961368],[-114.652145,49.993484],[-114.7343513,50.1208927],[-114.7254875,50.1889305],[-114.7920123,50.3368511],[-115.0218242,50.5848945],[-115.1747756,50.5682606],[-115.2964344,50.6126607],[-115.3909965,50.7057405],[-115.6473481,50.8747744],[-115.5789582,50.9137559],[-115.6512285,50.9988537],[-115.8142795,51.0859258],[-116.0129207,51.1290028],[-116.0083611,51.2217948],[-116.2696893,51.312996],[-116.3915472,51.5431541],[-116.6829683,51.8122884],[-116.9027542,51.7038516],[-117.10395,51.9573687],[-117.1965407,51.9787862],[-117.3359603,52.142303],[-117.5580788,52.1271526],[-117.8443543,52.2727925],[-117.720168,52.3657422],[-118.0054075,52.4909356],[-118.0481237,52.4018991],[-118.2163435,52.3720641],[-118.2615648,52.5041714],[-118.3528256,52.6366607],[-118.2883582,52.6789634],[-118.4152379,52.768252],[-118.4033403,52.8514995],[-118.574394,52.8865327],[-118.6728958,52.9786273],[-118.7289006,53.112413],[-118.9477144,53.2365628],[-119.0300793,53.1629499],[-119.2528145,53.1899991],[-119.4039853,53.3653019],[-119.6705894,53.3674552],[-119.9222976,53.6047774],[-119.7170694,53.6163141],[-119.8887311,53.7763984],[-120.0012733,53.7987116],[-120.0013692,54.7360389],[-120.0013745,55.3726816],[-120.001356,56.134715],[-120.0013234,56.9952819],[-120.0012676,58.058028],[-120.0013371,58.9417851],[-120.0013586,60.0004699],[-121.3565315,60.0008618],[-122.9876035,60.0001788],[-123.8102524,60.0009623],[-125.3603686,60.0015576],[-126.4018898,60.0004539],[-127.453174,60.000967],[-129.0544756,59.9987667],[-130.7683442,59.9985416],[-132.4410121,59.9993742],[-133.7980815,60.0002948],[-134.5986767,59.9998325],[-135.8499054,59.9990255],[-136.8824138,59.9994443],[-138,60.0006972],[-139.0613278,59.9996374]]]]},"properties":{"@id":"relation/390867","ISO3166-2":"CA-BC","admin_level":"4","alt_name:cs":"Provincie Britská Kolumbie","alt_name:vi":"Columbia thuộc Anh","border_type":"province","boundary":"administrative","name":"British Columbia","name:af":"Brits-Columbië","name:am":"ብሪቲሽ ኮለምቢያ","name:ar":"كولومبيا البريطانية","name:az":"Britaniya Kolumbiyası","name:be":"Брытанская Калумбія","name:bg":"Британска Колумбия","name:br":"Kolombia Vreizhveuriat","name:bs":"Britanska Kolumbija","name:ca":"Colúmbia Britànica","name:ckb":"بریتیش کۆڵۆمبیا","name:cs":"Britská Kolumbie","name:da":"Britisk Columbia","name:de":"Britisch-Kolumbien","name:el":"Βρετανική Κολομβία","name:en":"British Columbia","name:eo":"Brita Kolumbio","name:es":"Columbia Británica","name:et":"Briti Columbia","name:eu":"Columbia Britainiarra","name:fa":"بریتیش کلمبیا","name:fi":"Brittiläinen Kolumbia","name:fr":"Colombie-Britannique","name:fy":"Britsk-Kolumbia","name:ga":"An Cholóim Bhriotanach","name:gd":"Columbia Bhreatannach","name:gl":"Columbia Británica","name:gn":"Kolumbia Vyretañagua","name:gv":"Yn Cholombey Ghoaldagh","name:he":"קולומביה הבריטית","name:hi":"ब्रिटिश कोलम्बिया","name:hr":"Britanska Kolumbija","name:hu":"Brit Columbia","name:hy":"Բրիտանական Կոլումբիա","name:ia":"Columbia Britannic","name:ie":"British Colombia","name:is":"Breska Kólumbía","name:it":"Columbia Britannica","name:ja":"ブリティッシュコロンビア州","name:ka":"ბრიტანეთის კოლუმბია","name:kl":"Britisk Columbia","name:kn":"ಬ್ರಿಟಿಷ್‌‌ ಕೊಲಂಬಿಯಾ","name:ko":"브리티시컬럼비아 주","name:kw":"Kolombi Bredennek","name:la":"Columbia Britannica","name:lt":"Britų Kolumbija","name:lv":"Britu Kolumbija","name:mk":"Британска Колумбија","name:mn":"Бритиш Коламбиа","name:mr":"ब्रिटिश कोलंबिया","name:nl":"Brits-Columbia","name:nn":"Britisk Columbia","name:no":"Britisk Columbia","name:oc":"Colómbia Britanica","name:os":"Британийы Колумби","name:pa":"ਬ੍ਰਿਟਿਸ਼ ਕੋਲੰਬੀਆ","name:pl":"Kolumbia Brytyjska","name:pt":"Colúmbia Britânica","name:qu":"British Columbia pruwinsya","name:ro":"Columbia Britanică","name:ru":"Британская Колумбия","name:sc":"Colùmbia Britànnica","name:sk":"Britská Kolumbia","name:sl":"Britanska Kolumbija","name:sq":"Kolumbia Britanike","name:sr":"Британска Колумбија","name:sw":"British Kolumbia","name:ta":"பிரிட்டிசு கொலம்பியா","name:th":"รัฐบริติชโคลัมเบีย","name:tr":"Britanya Kolumbiyası","name:ug":"Britani Kolumbiye","name:uk":"Британська Колумбія","name:ur":"برٹش کولمبیا","name:uz":"Britaniya Kolumbiyasi","name:yi":"בריטישע קאלומביע","name:zh":"不列颠哥伦比亚省","name:zh-Hant":"不列顛哥倫比亞省","ref":"BC","short_name":"B.C.","short_name:en":"B.C.","short_name:fr":"C.-B.","source:name:br":"ofis publik ar brezhoneg","state_code":"BC","type":"boundary","wikidata":"Q1973","wikipedia":"en:British Columbia"},"id":"relation/390867"},
{"type":"Feature","geometry":{"type":"Polygon","coordinates":[[[-63.328871,47.6024791],[-64.4557681,47.0564791],[-64.5464194,46.8727701],[-64.5326865,46.5582912],[-64.3816245,46.4126746],[-64.2223227,46.333083],[-63.8776267,46.2495769],[-63.5748248,46.1008149],[-63.4064966,46.0118372],[-63.1428248,45.9221107],[-62.7775294,45.8494597],[-62.5330836,45.8609372],[-62.21448,45.9431236],[-61.7818549,46.2156982],[-61.5813583,46.4376179],[-61.3993669,46.8399985],[-62.2999563,46.839999],[-62.98636,47.1397285],[-63.328871,47.6024791]]]},"properties":{"@id":"relation/391115","ISO3166-2":"CA-PE","admin_level":"4","alt_name:cs":"Ostrov prince Eduarda","border_type":"province","boundary":"administrative","loc_name":"PEI","name":"Prince Edward Island","name:br":"Enez ar Priñs Edouarzh","name:ca":"Illa del Príncep Eduard","name:cs":"Ostrov prince Edvarda","name:de":"Prinz-Edward-Insel","name:en":"Prince Edward Island","name:es":"Isla del Príncipe Eduardo","name:et":"Prints Edwardi Saar","name:eu":"Eduardo Printzearen uhartea","name:fr":"Île-du-Prince-Édouard","name:it":"Isola del Principe Edoardo","name:ja":"プリンスエドワードアイランド州","name:lt":"Princo Edvardo sala","name:nl":"Prins Edwardeiland","name:pl":"Wyspa Księcia Edwarda","name:pt":"Ilha do Príncipe Eduardo","name:ro":"Insula Prințului Edward","name:ru":"Остров Принца Эдуарда","name:vi":"Đảo Hoàng tử Edward","ref":"PE","short_name":"P.E.I.","short_name:en":"P.E.I.","short_name:fr":"Î.-P.-É.","state_code":"PE","type":"boundary","wikidata":"Q1978","wikipedia":"en:Prince Edward Island"},"id":"relation/391115"},
{"type":"Feature","geometry":{"type":"Polygon","coordinates":[[[-110.006368,59.9996139],[-110.006145,58.9945337],[-110.0059872,57.9912107],[-110.0058803,57.2926497],[-110.0057994,56.3333931],[-110.0057496,55.7219928],[-110.0054057,54.7468195],[-110.0057209,54.2386192],[-110.005619,53.4243328],[-110.0054581,52.6959181],[-110.0053001,51.6200609],[-110.0051348,50.8349621],[-110.0050347,50.0477738],[-110.005056,48.9996249],[-108.8355062,48.99925],[-107.8861295,48.999758],[-106.9857522,49.000013],[-105.5608226,48.9996667],[-104.6850278,48.999],[-103.992467,48.999567],[-102.4565578,48.9988056],[-101.361989,48.9994722],[-101.3922176,49.1777123],[-101.3925639,49.5327312],[-101.4177744,49.5327142],[-101.417546,49.8866701],[-101.4471985,49.88666],[-101.4471535,50.2405433],[-101.4767208,50.2405059],[-101.4769949,50.5943875],[-101.5087288,50.5943934],[-101.5086946,50.9484851],[-101.5389827,50.9485807],[-101.5391379,51.3018564],[-101.5705439,51.3018759],[-101.5772302,51.9685683],[-101.6093112,51.9685811],[-101.6090547,52.318158],[-101.6378127,52.3181495],[-101.6377053,52.6672739],[-101.671588,52.6672606],[-101.6716045,53.0164479],[-101.7006943,53.0164508],[-101.7006057,53.3657811],[-101.7355437,53.3658084],[-101.735099,53.7107061],[-101.7706467,53.7108988],[-101.7713228,54.0644025],[-101.8104345,54.0644058],[-101.8104613,54.4135399],[-101.8474842,54.4135639],[-101.8474228,54.7625602],[-101.8853319,54.7625693],[-101.8852911,55.1115689],[-101.9240555,55.111545],[-101.9241924,55.4604325],[-101.9638087,55.46042],[-101.9637277,55.8093992],[-102.004039,55.8093815],[-102.0072905,56.1584471],[-102.0074004,56.9811481],[-102.0074137,57.4962907],[-102.0074584,58.1858205],[-102.0075615,59.1640969],[-102.0075681,59.9994439],[-103.4235024,59.9999381],[-104.7034845,59.9998181],[-106.0669907,59.9986341],[-106.9978848,59.9997317],[-108.529105,59.9995045],[-110.006368,59.9996139]]]},"properties":{"@id":"relation/391178","ISO3166-2":"CA-SK","admin_level":"4","alt_name:pa":"ਸਸਕਾਚਵਾਨ","border_type":"province","boundary":"administrative","name":"Saskatchewan","name:am":"ሰስካቸወን","name:ar":"ساسكاتشوان","name:az":"Saskaçevan","name:be":"Саскачэван","name:bg":"Саскачеван","name:br":"Saskatchewan","name:ckb":"ساسکاچوان","name:cs":"Saskatchewan","name:el":"Σασκάτσουαν","name:en":"Saskatchewan","name:eo":"Saskaĉevano","name:et":"Saskatchewani provints","name:fa":"ساسکاچوان","name:fr":"Saskatchewan","name:he":"ססקצ'ואן","name:hi":"सैस्कैचेवेन","name:hu":"Saskatchewan","name:hy":"Սասկաչևան","name:ja":"サスカチュワン州","name:ka":"სასკაჩევანი","name:ko":"서스캐처원 주","name:ku":"Saskaçwan","name:lt":"Saskačevanas","name:lv":"Saskačevana","name:mk":"Саскачеван","name:mn":"Саскачеван","name:mr":"सास्काचेवान","name:os":"Саскачеван","name:pa":"ਸਸਕੈਚਵਨ","name:pnb":"سسکیچون","name:qu":"Saskatchewan pruwinsya","name:ru":"Саскачеван","name:sdh":"ساسکاچوان","name:sr":"Саскачеван","name:ta":"சஸ்காச்சுவான்","name:th":"รัฐซัสแคตเชวัน","name:ug":"Saskachéwan","name:uk":"Саскачеван","name:ur":"ساسکچیوان","name:uz":"Saskachevan","name:wa":"Sascatchewane","name:yi":"סאסקאטשעווען","name:zh":"薩斯喀徹溫省","ref":"SK","short_name":"Sask.","short_name:en":"Sask.","short_name:fr":"Sask.","source:name:br":"ofis publik ar brezhoneg","state_code":"SK","type":"boundary","wikidata":"Q1989","wikipedia":"en:Saskatchewan"},"id":"relation/391178"},
{"type":"Feature","geometry":{"type":"Polygon","coordinates":[[[-120.0013586,60.0004699],[-120.0013371,58.9417851],[-120.0012676,58.058028],[-120.0013234,56.9952819],[-120.001356,56.134715],[-120.0013745,55.3726816],[-120.0013692,54.7360389],[-120.0012733,53.7987116],[-119.8887311,53.7763984],[-119.7170694,53.6163141],[-119.9222976,53.6047774],[-119.6705894,53.3674552],[-119.4039853,53.3653019],[-119.2528145,53.1899991],[-119.0300793,53.1629499],[-118.9477144,53.2365628],[-118.7289006,53.112413],[-118.6728958,52.9786273],[-118.574394,52.8865327],[-118.4033403,52.8514995],[-118.4152379,52.768252],[-118.2883582,52.6789634],[-118.3528256,52.6366607],[-118.2615648,52.5041714],[-118.2163435,52.3720641],[-118.0481237,52.4018991],[-118.0054075,52.4909356],[-117.720168,52.3657422],[-117.8443543,52.2727925],[-117.5580788,52.1271526],[-117.3359603,52.142303],[-117.1965407,51.9787862],[-117.10395,51.9573687],[-116.9027542,51.7038516],[-116.6829683,51.8122884],[-116.3915472,51.5431541],[-116.2696893,51.312996],[-116.0083611,51.2217948],[-116.0129207,51.1290028],[-115.8142795,51.0859258],[-115.6512285,50.9988537],[-115.5789582,50.9137559],[-115.6473481,50.8747744],[-115.3909965,50.7057405],[-115.2964344,50.6126607],[-115.1747756,50.5682606],[-115.0218242,50.5848945],[-114.7920123,50.3368511],[-114.7254875,50.1889305],[-114.7343513,50.1208927],[-114.652145,49.993484],[-114.6919559,49.8961368],[-114.6398423,49.8266297],[-114.7324644,49.574594],[-114.5959493,49.5017336],[-114.5913972,49.3969948],[-114.3932398,49.2571155],[-114.4023105,49.2131815],[-114.1750821,49.1640439],[-114.0682072,48.9988717],[-112.9239444,48.9984722],[-111.5756944,48.9966667],[-110.8801389,48.9981389],[-110.005056,48.9996249],[-110.0050347,50.0477738],[-110.0051348,50.8349621],[-110.0053001,51.6200609],[-110.0054581,52.6959181],[-110.005619,53.4243328],[-110.0057209,54.2386192],[-110.0054057,54.7468195],[-110.0057496,55.7219928],[-110.0057994,56.3333931],[-110.0058803,57.2926497],[-110.0059872,57.9912107],[-110.006145,58.9945337],[-110.006368,59.9996139],[-111.2479207,59.999279],[-112.4032034,59.9991595],[-114.1538524,59.9986748],[-115.4466763,59.998297],[-116.6192961,59.9991566],[-117.6810792,59.9997989],[-118.7003362,59.9995946],[-120.0013586,60.0004699]]]},"properties":{"@id":"relation/391186","ISO3166-2":"CA-AB","admin_level":"4","border_type":"province","boundary":"administrative","flag":"File:Flag_of_Alberta.svg","name":"Alberta","name:am":"አልቤርታ","name:ar":"ألبرتا","name:be":"Правінцыя Альберта","name:bg":"Албърта","name:br":"Alberta","name:ckb":"ئەلبێرتا","name:cs":"Alberta","name:el":"Αλμπέρτα","name:en":"Alberta","name:eo":"Alberto","name:et":"Alberta","name:fa":"آلبرتا","name:fr":"Alberta","name:he":"אלברטה","name:hi":"अल्बर्टा","name:hu":"Alberta","name:hy":"Ալբերտա","name:is":"Alberta","name:ja":"アルバータ州","name:ka":"ალბერტა","name:kk":"Альберта","name:kn":"ಆಲ್ಬರ್ಟಾ","name:ko":"앨버타 주","name:lt":"Alberta","name:mk":"Алберта","name:mn":"Альберта","name:mr":"आल्बर्टा","name:oc":"Albèrta","name:os":"Альбертæ","name:pa":"ਅਲਬਰਟਾ","name:qu":"Alberta pruwinsya","name:ru":"Альберта","name:sl":"Alberta","name:sr":"Алберта","name:ta":"ஆல்பர்ட்டா","name:th":"รัฐแอลเบอร์ตา","name:ug":"Albérta","name:uk":"Альберта","name:ur":"البرٹا","name:yi":"אלבערטא","name:zh":"艾伯塔省","ref":"AB","short_name":"Alta.","short_name:en":"Alta.","short_name:fr":"Alb.","source:name:br":"ofis publik ar brezhoneg","state_code":"AB","type":"boundary","wikidata":"Q1951","wikipedia":"en:Alberta"},"id":"relation/391186"},
{"type":"Feature","geometry":{"type":"MultiPolygon","coordinates":[[[[-59.2887119,47.3733812],[-58.9520345,47.3673266],[-58.2426637,47.437989],[-57.7484686,47.3631965],[-57.10407,47.191213],[-56.9378138,47.1770013],[-56.760587,47.241772],[-56.6190662,47.3645601],[-56.5419805,47.3854414],[-56.255,47.3052778],[-56.105,47.1005556],[-56.1297222,46.9311111],[-56.1008154,46.8593247],[-55.9825,46.8027778],[-55.9033333,46.6461111],[-55.7253444,46.6385934],[-55.3799547,46.6704815],[-54.2961396,46.6242851],[-53.7066032,46.4317592],[-53.5740376,46.410471],[-53.1415421,46.4250414],[-52.9211026,46.483568],[-52.7049073,46.6776143],[-52.626214,46.8087308],[-52.5603344,47.0362889],[-52.4720615,47.237784],[-52.3847817,47.3616983],[-52.3281085,47.5574799],[-52.4318954,47.8239887],[-52.4908855,47.8908546],[-52.4937379,48.171218],[-52.6972131,48.5713712],[-52.6968831,48.6271269],[-52.8245406,48.8102921],[-53.0727668,49.2436312],[-53.2104685,49.3968522],[-53.340417,49.4617166],[-53.5019432,49.7036616],[-53.7776588,49.9403538],[-53.9742483,50.0189723],[-55.2062413,50.1845464],[-55.3395047,50.2638212],[-55.1486124,50.7381351],[-55.143795,50.8270827],[-55.2197321,50.9275526],[-55.2074827,51.0072409],[-55.3354681,51.1479142],[-55.2037209,51.2912984],[-55.0566126,51.5005845],[-55.0341366,51.6165835],[-55.0827104,51.7855171],[-54.9698811,51.9374561],[-54.9790264,52.0907447],[-55.0314359,52.1450076],[-55.2050993,52.2113489],[-55.3103185,52.4935743],[-55.4219363,52.7134304],[-55.4527764,52.8822419],[-55.2719396,53.4432031],[-55.3103802,53.5266022],[-55.6363931,53.8270084],[-55.7132357,53.8765124],[-56.2814309,54.1363864],[-56.4772676,54.3188568],[-56.5121348,54.4775088],[-56.6288622,54.6042983],[-56.5584661,54.7738771],[-56.7072839,54.8990184],[-56.8473749,54.9296478],[-57.1142324,54.8874938],[-58.0167146,55.1880934],[-58.551476,55.3757605],[-59.1202514,55.4842958],[-59.2174579,55.5501166],[-59.6001245,55.9649557],[-60.122944,56.3268874],[-60.1804213,56.4554818],[-60.2864808,56.57539],[-60.4407729,56.8624507],[-60.6995348,57.0285958],[-60.9354249,57.2514882],[-60.9379772,57.5793243],[-60.9833946,57.669637],[-61.3659943,58.0437379],[-61.8019658,58.3435286],[-62.2376888,58.6031588],[-62.5351141,58.8765884],[-63.0374454,59.4190383],[-63.0951897,59.6485742],[-63.151626,59.7287535],[-63.3980089,59.9284445],[-63.5942788,60.1672175],[-64.0260853,60.4770255],[-64.3505412,60.3813107],[-64.4914076,60.3726056],[-64.5174759,60.3043982],[-64.8537778,60.2694115],[-64.7455625,60.168628],[-64.5937159,60.1170313],[-64.742714,60.0561311],[-64.8402284,59.9703191],[-64.6622305,59.952554],[-64.8252245,59.825608],[-64.7604854,59.7065582],[-64.8982595,59.6417833],[-64.8396296,59.553342],[-64.6798349,59.4469051],[-64.4337662,59.5419736],[-64.3240693,59.5127741],[-64.5115984,59.4229799],[-64.5435363,59.3104351],[-64.4886035,59.2571101],[-64.4903091,59.0990751],[-64.315176,59.0656298],[-64.4603011,58.9815143],[-64.7792388,59.0749574],[-64.8650159,59.015405],[-64.8207135,58.9168927],[-64.6516502,58.943752],[-64.5501825,58.8874554],[-64.3325402,58.9045628],[-64.2336567,58.8641133],[-64.2297046,58.7836485],[-63.812138,58.8470628],[-63.5953411,58.8571758],[-63.5067939,58.7425746],[-63.9502538,58.6852473],[-64.0472222,58.7026285],[-64.1049435,58.56323],[-63.973579,58.5296361],[-63.8811133,58.4294397],[-64.0225389,58.3710192],[-64.1722227,58.3618733],[-64.217777,58.2477322],[-64.4217325,58.1866737],[-64.4330914,58.0699081],[-64.2509603,58.0387185],[-64.1166754,57.8111394],[-63.9972489,57.8120787],[-63.6499515,57.6200639],[-63.7719159,57.5924498],[-63.7612609,57.4393317],[-63.7013012,57.3683336],[-63.8558208,57.3343012],[-63.7414669,57.2407656],[-63.7648855,57.1399256],[-63.8900834,57.0860831],[-63.9080998,56.9275211],[-64.012978,56.8498464],[-64.0127595,56.7786769],[-64.1453144,56.6997548],[-63.931063,56.5337576],[-63.993016,56.4082113],[-64.1527402,56.4411121],[-64.0904958,56.2798978],[-63.8629333,56.2125891],[-64.0359633,56.154881],[-63.9332488,56.0971519],[-63.6367213,56.0235227],[-63.8450987,55.8790734],[-63.7736126,55.856054],[-63.6654728,55.5459876],[-63.7754714,55.481709],[-63.6653971,55.4230506],[-63.4785667,55.4292056],[-63.4422496,55.3440597],[-63.6794751,55.2668869],[-63.5474105,55.225469],[-63.6113669,55.0908038],[-63.556392,55.0344439],[-63.6612828,54.8999525],[-63.8205183,54.9479581],[-63.8133772,54.6507858],[-63.9114392,54.6042487],[-64.0542772,54.6009083],[-64.2945278,54.7532738],[-64.4852881,54.7937197],[-64.5568825,54.7136623],[-64.7780869,54.7334688],[-64.7478748,54.8139943],[-64.9719006,54.9373956],[-65.1264493,54.961478],[-65.2096231,54.8479578],[-65.3256953,54.848678],[-65.4555303,54.7285832],[-65.6901153,54.711527],[-65.8383149,54.8365275],[-65.8498454,54.9272109],[-66.0233959,54.9419533],[-66.2602838,55.0001826],[-66.6027926,55.2689814],[-66.6697735,55.2694447],[-66.7668162,55.147979],[-66.6814082,54.9236678],[-66.6026511,54.8135063],[-66.6963122,54.7259542],[-66.9478467,54.8223105],[-67.2574846,55.0212742],[-67.3228379,55.0890653],[-67.4637039,55.0628569],[-67.3997557,54.957859],[-67.2134185,54.7927488],[-67.0629008,54.6929331],[-67.138551,54.6245387],[-67.3492353,54.516992],[-67.7274967,54.4573993],[-67.7480367,54.3502609],[-67.6799563,54.3119235],[-67.675322,54.1587612],[-67.8216853,54.0257023],[-67.6998393,53.9766045],[-67.5714897,53.8455668],[-67.592219,53.7574978],[-67.3968497,53.6828793],[-67.3947309,53.6146543],[-67.2187691,53.5303403],[-67.0303082,53.5267371],[-66.9244479,53.4186609],[-67.0416076,53.0760721],[-67.154228,53.1472255],[-67.3923368,53.120855],[-67.3168245,52.8754477],[-67.2274723,52.8417708],[-67.0742522,52.8754518],[-67.0670067,52.7751162],[-66.802279,52.7160048],[-66.6650322,52.8089925],[-66.6312949,52.8989619],[-66.35148,53.0096671],[-66.2811199,52.8671672],[-66.4122516,52.869549],[-66.3078218,52.7294811],[-66.4404108,52.6349956],[-66.3538233,52.4701328],[-66.3920978,52.3796825],[-66.4801118,52.3553228],[-66.453193,52.2454933],[-66.2701286,52.1481627],[-66.2492511,52.2847172],[-66.1052302,52.2046007],[-66.0228449,52.0837971],[-65.7648443,52.1161455],[-65.5270529,52.081695],[-65.3491321,51.9364851],[-65.3488582,51.8478118],[-65.1657794,51.8081429],[-64.9678445,51.7201163],[-64.8133554,51.7811812],[-64.6430397,51.7053851],[-64.5603419,51.5945885],[-64.4584791,51.6240332],[-64.2850052,51.7282473],[-64.3593839,51.8476621],[-64.348956,51.9904418],[-64.1814552,52.1231434],[-64.2503563,52.2815681],[-64.1709078,52.3068857],[-64.1373685,52.4307162],[-64.2102372,52.5648607],[-64.1284225,52.6847634],[-63.7222573,52.773999],[-63.6054456,52.7681628],[-63.3925454,52.6793529],[-63.8761246,52.6201365],[-64.031956,52.5706518],[-64.0896642,52.446723],[-64.014383,52.3637238],[-63.7477964,52.2555036],[-63.6901886,52.1290272],[-63.8357358,52.0815538],[-63.8056199,52.0000707],[-62.5992346,52.0000751],[-61.9992271,52.0000778],[-60.8991758,52.0000827],[-59.6991443,52.000074],[-58.8991462,52.0000521],[-57.9990846,52.0000672],[-57.1074889,52.0000758],[-57.1074889,51.3771358],[-57.3040495,51.138839],[-57.7361373,50.9986069],[-58.5015291,50.2709191],[-60.4768198,48.7813802],[-60.4037537,47.7610742],[-59.2887119,47.3733812]]],[[[-52.870385,49.7606219],[-52.8954061,49.8363769],[-53.0104548,49.9255206],[-53.1159267,49.9538404],[-53.3596579,49.9262044],[-53.4667489,49.8484982],[-53.4927087,49.7169099],[-53.4127367,49.6178886],[-53.3211014,49.5744323],[-53.1202788,49.5584299],[-52.9589373,49.6149623],[-52.870385,49.7606219]]]]},"properties":{"@id":"relation/391196","ISO3166-2":"CA-NL","admin_level":"4","border_type":"province","boundary":"administrative","name":"Newfoundland and Labrador","name:af":"Newfoundland en Labrador","name:ar":"نيوفاوندلاند واللابرادور","name:az":"Nyufaundlend və Labrador","name:be":"Правінцыя Ньюфаўндленд і Лабрадор","name:bg":"Нюфаундленд и Лабрадор","name:br":"Douar-Nevez ha Labrador","name:bs":"Newfoundland i Labrador","name:ca":"Terranova i Labrador","name:ckb":"نیوفاوندلاند و لابرادۆر","name:cs":"Newfoundland a Labrador","name:cy":"Newfoundland a Labrador","name:da":"Newfoundland og Labrador","name:de":"Neufundland und Labrador","name:el":"Νέα Γη και Λαμπραντόρ","name:en":"Newfoundland and Labrador","name:eo":"Novlando kaj Labradoro","name:es":"Terranova y Labrador","name:et":"Newfoundland ja Labrador","name:eu":"Ternua eta Labrador","name:fa":"نیوفاندلند و لابرادور","name:fi":"Newfoundland ja Labrador","name:fo":"Nýfundland og Labrador","name:fr":"Terre-Neuve et Labrador","name:fy":"Nijfûnlân en Labrador","name:ga":"Talamh an Éisc agus Labradar","name:gd":"An Talamh Ùr is Labrador","name:gl":"Terra Nova e Labrador","name:gv":"Thalloo yn Eeast as Labrador","name:he":"ניופאונדלנד ולברדור","name:hr":"Newfoundland i Labrador","name:hu":"Új-Fundland és Labrador","name:hy":"Նյուֆաունդլենդ և Լաբրադոր","name:id":"Newfoundland dan Labrador","name:ie":"Nov-Fundland e Labrador","name:io":"Newfoundland e Labrador","name:is":"Nýfundnaland og Labrador","name:it":"Terranova e Labrador","name:ja":"ニューファンドランド・ラブラドール州","name:ka":"ნიუფაუნდლენდი და ლაბრადორი","name:kl":"Newfoundland aamma Labrador","name:ko":"뉴펀들랜드 래브라도 주","name:ku":"Nîwfawindland û labrador","name:kw":"Tir Nowydh ha Labrador","name:la":"Terra Nova et Terra Laboratoria","name:lb":"Neifundland a Labrador","name:lt":"Niufaundlandas ir Labradoras","name:lv":"Ņūfaundlenda un Labradora","name:mk":"Њуфаундленд и Лабрадор","name:mn":"Ньюфаундленд ба Лабрадор","name:mr":"न्यूफाउंडलंड आणि लाब्राडोर","name:ms":"Newfoundland dan Labrador","name:nl":"Newfoundland en Labrador","name:nn":"Newfoundland og Labrador","name:no":"Newfoundland og Labrador","name:oc":"Tèrranòva e Labrador","name:os":"Ньюфаундленд æмæ Лабрадор","name:pa":"ਨਿਊਫ਼ੰਡਲੈਂਡ ਅਤੇ ਲਾਬਰਾਡੋਰ","name:pl":"Nowa Fundlandia i Labrador","name:pt":"Terra Nova e Labrador","name:qu":"Newfoundland wan Labrador pruwinsya","name:ro":"Newfoundland și Labrador","name:ru":"Ньюфаундленд и Лабрадор","name:sc":"Terranova e Labrador","name:sk":"Newfoundland a Labrador","name:sl":"Nova Fundlandija in Labrador","name:sq":"Toka e Re dhe Labradori","name:sr":"Њуфаундленд и Лабрадор","name:sv":"Newfoundland och Labrador","name:ta":"நியூஃபவுன்லாந்து மற்றும் லாப்ரடோர்","name:th":"รัฐนิวฟันด์แลนด์และแลบราดอร์","name:tl":"Newfoundland at Labrador","name:tr":"Newfoundland ve Labrador","name:ug":"Néwfundland Ölkisi","name:uk":"Ньюфаундленд і Лабрадор","name:ur":"نیو فاؤنڈ لینڈ اور لیبراڈور","name:uz":"Nyufaundlend va Labrador","name:vi":"Newfoundland và Labrador","name:vo":"Newfoundland e Labrador","name:yi":"נייפונדלאנד און לאבראדאר","name:yo":"Newfoundland àti Labrador","name:zh":"紐芬蘭與拉布拉多省","ref":"NL","short_name":"N.L.","short_name:en":"N.L.","short_name:fr":"T.-N.-L.","state_code":"NL","type":"boundary","wikidata":"Q2003","wikipedia":"en:Newfoundland and Labrador"},"id":"relation/391196"},
{"type":"Feature","geometry":{"type":"Polygon","coordinates":[[[-110.0027326,79.1299817],[-112.839115,78.77941],[-113.717997,78.6262994],[-114.704508,78.5128906],[-115.019896,78.4535261],[-115.852149,78.1997794],[-116.259103,78.0061494],[-116.633019,77.9037361],[-116.875615,77.7897644],[-118.552467,77.5952128],[-119.256223,77.5468006],[-119.769668,77.4758597],[-122.717843,76.6094433],[-123.353372,76.5351403],[-123.774841,76.4185742],[-123.904376,76.0796408],[-123.798051,75.9359214],[-123.600088,75.8643967],[-124.51715,75.1865822],[-125.374592,74.4892764],[-125.765958,74.3630772],[-125.784345,74.2484994],[-125.301362,74.0190828],[-125.266783,73.9379056],[-125.413611,73.7598836],[-125.414989,73.6729881],[-125.234004,73.5688844],[-125.020265,73.5220739],[-125.228491,73.3153381],[-125.532466,73.1602283],[-125.894988,72.8306831],[-125.765627,72.7251392],[-126.033921,72.5727419],[-126.12144,72.4011364],[-126.289105,72.3161253],[-126.44573,72.1276703],[-127.368517,71.6126608],[-128.740393,70.7711064],[-130.030227,70.4517817],[-130.495668,70.407545],[-130.785174,70.4026358],[-131.190716,70.3151572],[-131.806223,70.1092914],[-132.570606,69.9393117],[-132.823279,69.9111172],[-133.452016,69.7870119],[-133.882878,69.9256797],[-134.334429,69.9864981],[-134.64288,69.9649128],[-135.131838,69.8824575],[-135.851879,69.7930089],[-136.257985,69.6262394],[-136.588001,69.4031067],[-136.4483514,68.8936086],[-136.4482964,68.2165585],[-136.4415025,67.6549664],[-136.2416571,67.619594],[-136.2159657,67.4209082],[-136.0839426,67.307565],[-136.2250823,67.0949911],[-136.1596633,67],[-135,67],[-134.0785248,66.9794243],[-134.0495482,66.9115918],[-133.8054969,66.835237],[-133.87095,66.7105281],[-133.7086186,66.5217932],[-133.847763,66.3180447],[-133.6030311,66.2737943],[-133.5604582,66.1535498],[-133.6602362,66.1184368],[-133.6174295,65.9531574],[-133.4298848,65.9373528],[-133.243485,66.0052814],[-132.9913205,66.0371486],[-132.9908199,65.9367717],[-132.5929018,66.0302356],[-132.4213402,65.9379343],[-132.5528884,65.8316799],[-132.3673807,65.7773555],[-132.165499,65.6174657],[-132.5617194,65.2861837],[-132.524805,65.0864451],[-132.3425182,65.0370333],[-132.5194848,64.9624088],[-132.487452,64.8814933],[-132.632429,64.8283514],[-132.3452038,64.7863134],[-132.0330387,64.697057],[-131.8466431,64.5304926],[-131.6909737,64.5002707],[-131.8710687,64.3888085],[-131.6350056,64.375046],[-131.4480034,64.3978467],[-131.407821,64.4616211],[-131.1503204,64.4167256],[-130.9464532,64.2382097],[-130.9676604,64.104755],[-130.7734192,63.972067],[-130.5391191,63.9296684],[-130.3696708,63.8358939],[-130.1351558,63.8561455],[-130.1570451,63.6937952],[-130.1006002,63.616003],[-129.9446394,63.6053956],[-129.8818057,63.5064258],[-129.9440986,63.3376175],[-130.1586838,63.3056794],[-129.8362291,63.0929252],[-129.602501,63.0433502],[-129.784812,62.872567],[-129.6398319,62.7352822],[-129.3768665,62.5467398],[-129.2330912,62.5092243],[-129.304358,62.2694466],[-129.2005344,62.2116529],[-129.1845599,62.1143081],[-128.9095279,62.1186115],[-128.7728436,62.081485],[-128.5976254,62.1410586],[-128.267144,61.9429429],[-128.2125456,61.8577805],[-127.995804,61.8078226],[-128.0715669,61.7501946],[-127.6667897,61.5455045],[-127.5336105,61.5058939],[-127.2776005,61.5119033],[-127.1352814,61.4552236],[-127.0045419,61.1790734],[-127.1135729,61.1405529],[-127.0823573,61.0326716],[-126.9506693,61.0274715],[-126.8449202,60.812045],[-126.6326539,60.7675881],[-126.3020543,60.7757194],[-126.2198066,60.8123242],[-125.9939365,60.805288],[-125.8418165,60.9105576],[-125.683302,60.7974788],[-125.278344,60.7869447],[-125.1838771,60.8476767],[-125.0261741,60.8234104],[-124.8630189,60.8562697],[-124.8804398,60.9250161],[-124.5761921,60.9508184],[-124.4829607,60.7778418],[-124.5973174,60.6468434],[-124.4179304,60.534285],[-124.4248612,60.4663583],[-124.2041784,60.4535152],[-124.2327843,60.3710799],[-124.1210204,60.1986559],[-124.0073968,60.1475705],[-123.9885205,60.0727119],[-123.8102524,60.0009623],[-122.9876035,60.0001788],[-121.3565315,60.0008618],[-120.0013586,60.0004699],[-118.7003362,59.9995946],[-117.6810792,59.9997989],[-116.6192961,59.9991566],[-115.4466763,59.998297],[-114.1538524,59.9986748],[-112.4032034,59.9991595],[-111.2479207,59.999279],[-110.006368,59.9996139],[-108.529105,59.9995045],[-106.9978848,59.9997317],[-106.0669907,59.9986341],[-104.7034845,59.9998181],[-103.4235024,59.9999381],[-102.0075681,59.9994439],[-102.0067337,60.5735751],[-102.005025,61.6887627],[-102.00369,62.5059477],[-102.0019397,63.5161474],[-102.0006191,64.2336722],[-102.9799046,64.3367197],[-105,64.5264798],[-107.0317709,64.6871393],[-109.3344286,64.8336372],[-110.6678591,65.5003267],[-112.5012946,65.5003203],[-113.281331,65.7810126],[-115.1744927,66.4218978],[-116.6747734,66.8918173],[-117.6566843,67.1824101],[-119.2436774,67.6254092],[-120.680307,68.0002875],[-120.680425,68.7768344],[-120.680556,69.5563022],[-118.4,69.6143729],[-116.6325479,69.6364146],[-117.1465907,69.8893186],[-117.1169164,70.0004251],[-115.3759598,70.0004503],[-114.4835534,70.0004526],[-112.8852879,70.000467],[-112.8852822,69.8338425],[-112.436602,69.8507677],[-112.5019148,70.0004697],[-111.3899,70.0004767],[-110.0016874,70.0004973],[-110.0018109,70.8087737],[-110.0018449,71.7396195],[-110.0018855,72.3400018],[-110.001922,72.9807927],[-110.0020778,73.9393807],[-110.0022333,74.8438895],[-110.0023302,75.902369],[-110.0024026,76.4872107],[-110.0028065,77.920266],[-110.003308,78.6946255],[-110.0027326,79.1299817]]]},"properties":{"@id":"relation/391220","ISO3166-2":"CA-NT","admin_level":"4","border_type":"province","boundary":"administrative","flag":"File:Flag_of_the_Northwest_Territories.svg","name":"Northwest Territories","name:af":"Noordwestelike gebiede","name:ar":"الأقاليم الشمالية الغربية","name:az":"Şimal-Qərb əraziləri","name:be":"Паўночна-Заходнія тэрыторыі","name:bg":"Северозападни територии","name:br":"Tiriadoù ar Gwalarn","name:bs":"Sjeverozapadne teritorije","name:ca":"Territoris del Nord-oest","name:ckb":"ناوچەکانی باکووری ڕۆژاوا","name:cs":"Severozápadní teritoria","name:cy":"Tiriogaethau'r Gogledd-orllewin","name:de":"Nordwest-Territorien","name:el":"Βορειοδυτικά Εδάφη","name:en":"Northwest Territories","name:eo":"Nordokcidentaj Teritorioj","name:es":"Territorios del Noroeste","name:et":"Loodealad","name:eu":"Ipar-mendebaldeko Lurraldeak","name:fa":"قلمروهای شمال غرب","name:fi":"Luoteisterritoriot","name:fr":"Territoires du Nord-Ouest","name:fy":"Noardwestlike Territoaria","name:ga":"Críocha an Iarthuaiscirt","name:gd":"Roinnean an Iar Thuath","name:gl":"Territorios do Noroeste","name:gv":"Thallooyn yn Eear Hwoaie","name:he":"הטריטוריות הצפון-מערביות","name:hi":"नॉर्थवेस्ट टेरीटरीज़","name:hr":"Sjeverozapadni teritoriji","name:hu":"Északnyugati területek","name:hy":"Հյուսիսարևմտյան տարածքներ","name:id":"Wilayah Barat Laut","name:is":"Norðvesturhéruðin","name:it":"Territori del Nord-Ovest","name:iu":"ᓄᓇᑦᓯᐊᖅ","name:ja":"ノースウエスト準州","name:ka":"ჩრდილო-დასავლეთი ტერიტორიები","name:ko":"노스웨스트 준주","name:kw":"Tiredhow an North-West","name:la":"Territoria septentrio-occidentalia","name:lb":"Nordwest-Territoiren","name:lt":"Šiaurės Vakarų teritorijos","name:lv":"Ziemeļrietumu Teritorijas","name:mk":"Северозападни Територии","name:mn":"Баруун Хойд Нутаг Дэвсгэр","name:mr":"नॉर्थवेस्ट टेरिटोरीज","name:ms":"Wilayah Barat Laut","name:nl":"Noordwest Territoria","name:nn":"Nordvestterritoria","name:no":"Nordvestterritoriene","name:oc":"Territòris del Nòrd Oèst","name:os":"Цæгат-Ныгуылæн территоритæ","name:pa":"ਉੱਤਰ-ਪੱਛਮੀ ਰਾਜਖੇਤਰ","name:pl":"Terytoria Północno-Zachodnie","name:pt":"Territórios do Noroeste","name:ro":"Teritoriile de Nordvest","name:ru":"Северо-Западные территории","name:sc":"Territòrios de su Norti-Uestu","name:sk":"Severozápadné teritóriá","name:sl":"Severozahodni teritoriji","name:sq":"Territoret Veri-Perëndimore","name:sr":"Северозападне територије","name:ta":"வடமேற்கு நிலப்பகுதிகள்","name:th":"นอร์ทเวสต์เทร์ริทอรีส์","name:tl":"Hilagang Kanlurang mga Nasasakupan","name:tr":"Kuzeybatı Toprakları","name:ug":"Gherbiy Shimal Rayoni","name:uk":"Північно-західні території","name:ur":"شمال مغربی علاقہ جات، کینیڈا","name:uz":"Shimoli-Gʻarbiy hududlar","name:vi":"Các Lãnh thổ Tây Bắc","name:yi":"נארדוועסט טעריטאריעס","name:zh":"西北地区","political_division":"parl_const","ref":"NT","short_name":"N.W.T.","short_name:en":"N.W.T.","short_name:fr":"T.N.-O.","state_code":"NT","type":"boundary","wikidata":"Q2007","wikipedia":"en:Northwest Territories"},"id":"relation/391220"},
{"type":"Feature","geometry":{"type":"Polygon","coordinates":[[[-136.588001,69.4031067],[-138.033046,69.481297],[-138.384662,69.69798],[-138.657433,69.790624],[-139.166417,69.838188],[-140.355601,69.790045],[-141.00275,69.84588],[-141.0008278,68.8114528],[-141.0009972,68.0950556],[-141.0010917,67.5986444],[-141.0012323,66.8874469],[-141.0013222,66.1791444],[-141.0013325,65.4938519],[-141.0013047,64.5430119],[-141.0013347,63.9316825],[-141.0013992,63.0221272],[-141.0015286,62.2237656],[-141.0016569,61.5970406],[-141.0019428,60.8185617],[-141.00198,60.3063692],[-140.520424,60.2198189],[-140.458206,60.3080847],[-139.981094,60.1819656],[-139.692981,60.3352244],[-139.074818,60.3525047],[-139.198845,60.0882958],[-139.0613278,59.9996374],[-138,60.0006972],[-136.8824138,59.9994443],[-135.8499054,59.9990255],[-134.5986767,59.9998325],[-133.7980815,60.0002948],[-132.4410121,59.9993742],[-130.7683442,59.9985416],[-129.0544756,59.9987667],[-127.453174,60.000967],[-126.4018898,60.0004539],[-125.3603686,60.0015576],[-123.8102524,60.0009623],[-123.9885205,60.0727119],[-124.0073968,60.1475705],[-124.1210204,60.1986559],[-124.2327843,60.3710799],[-124.2041784,60.4535152],[-124.4248612,60.4663583],[-124.4179304,60.534285],[-124.5973174,60.6468434],[-124.4829607,60.7778418],[-124.5761921,60.9508184],[-124.8804398,60.9250161],[-124.8630189,60.8562697],[-125.0261741,60.8234104],[-125.1838771,60.8476767],[-125.278344,60.7869447],[-125.683302,60.7974788],[-125.8418165,60.9105576],[-125.9939365,60.805288],[-126.2198066,60.8123242],[-126.3020543,60.7757194],[-126.6326539,60.7675881],[-126.8449202,60.812045],[-126.9506693,61.0274715],[-127.0823573,61.0326716],[-127.1135729,61.1405529],[-127.0045419,61.1790734],[-127.1352814,61.4552236],[-127.2776005,61.5119033],[-127.5336105,61.5058939],[-127.6667897,61.5455045],[-128.0715669,61.7501946],[-127.995804,61.8078226],[-128.2125456,61.8577805],[-128.267144,61.9429429],[-128.5976254,62.1410586],[-128.7728436,62.081485],[-128.9095279,62.1186115],[-129.1845599,62.1143081],[-129.2005344,62.2116529],[-129.304358,62.2694466],[-129.2330912,62.5092243],[-129.3768665,62.5467398],[-129.6398319,62.7352822],[-129.784812,62.872567],[-129.602501,63.0433502],[-129.8362291,63.0929252],[-130.1586838,63.3056794],[-129.9440986,63.3376175],[-129.8818057,63.5064258],[-129.9446394,63.6053956],[-130.1006002,63.616003],[-130.1570451,63.6937952],[-130.1351558,63.8561455],[-130.3696708,63.8358939],[-130.5391191,63.9296684],[-130.7734192,63.972067],[-130.9676604,64.104755],[-130.9464532,64.2382097],[-131.1503204,64.4167256],[-131.407821,64.4616211],[-131.4480034,64.3978467],[-131.6350056,64.375046],[-131.8710687,64.3888085],[-131.6909737,64.5002707],[-131.8466431,64.5304926],[-132.0330387,64.697057],[-132.3452038,64.7863134],[-132.632429,64.8283514],[-132.487452,64.8814933],[-132.5194848,64.9624088],[-132.3425182,65.0370333],[-132.524805,65.0864451],[-132.5617194,65.2861837],[-132.165499,65.6174657],[-132.3673807,65.7773555],[-132.5528884,65.8316799],[-132.4213402,65.9379343],[-132.5929018,66.0302356],[-132.9908199,65.9367717],[-132.9913205,66.0371486],[-133.243485,66.0052814],[-133.4298848,65.9373528],[-133.6174295,65.9531574],[-133.6602362,66.1184368],[-133.5604582,66.1535498],[-133.6030311,66.2737943],[-133.847763,66.3180447],[-133.7086186,66.5217932],[-133.87095,66.7105281],[-133.8054969,66.835237],[-134.0495482,66.9115918],[-134.0785248,66.9794243],[-135,67],[-136.1596633,67],[-136.2250823,67.0949911],[-136.0839426,67.307565],[-136.2159657,67.4209082],[-136.2416571,67.619594],[-136.4415025,67.6549664],[-136.4482964,68.2165585],[-136.4483514,68.8936086],[-136.588001,69.4031067]]]},"properties":{"@id":"relation/391455","ISO3166-2":"CA-YT","admin_level":"4","border_type":"province","boundary":"administrative","name":"Yukon","name:ar":"يوكون","name:be":"Тэрыторыя Юкан","name:bg":"Юкон","name:ckb":"یوکۆن","name:cs":"Yukon","name:de":"Yukon","name:el":"Γιούκον","name:en":"Yukon","name:eo":"Jukonio","name:es":"Yukón","name:et":"Yukon","name:fa":"یوکان","name:fr":"Yukon","name:gd":"Roinn an Iukon","name:gl":"Yukón","name:he":"יוקון","name:hi":"यूकॉन","name:hu":"Yukon","name:hy":"Յուկոն","name:is":"Júkon","name:ja":"ユーコン準州","name:ka":"იუკონი","name:ko":"유콘 준주","name:ku":"Îwkon","name:lt":"Jukonas","name:lv":"Jukona","name:mk":"Јукон","name:mn":"Юкон","name:mr":"युकॉन","name:nl":"Yukon","name:os":"Юкон","name:pa":"ਯੂਕੋਨ","name:pl":"Jukon","name:ru":"Юкон","name:sk":"Yukon","name:sl":"Jukon","name:sr":"Јукон","name:ta":"யூக்கான்","name:th":"ยูคอน","name:ug":"Yukon Rayoni","name:uk":"Юкон","name:ur":"يوكون","name:yi":"יוקאן","name:zh-Hans":"育空地区","name:zh-Hant":"育空地區","old_name:en":"Yukon Territory","political_division":"parl_const","ref":"YT","short_name":"Y.T.","short_name:en":"Y.T.","short_name:fr":"Yn","state_code":"YT","type":"boundary","wikidata":"Q2009","wikipedia":"en:Yukon"},"id":"relation/391455"}
]}